HIERARCHY
ROOT Hips
{
	OFFSET -0.001795 -0.223333 0.028219
	CHANNELS 6 Xposition Yposition Zposition Zrotation Yrotation Xrotation 
	JOINT LeftUpLeg
	{
		OFFSET 0.069520 -0.091406 -0.006815
		CHANNELS 3 Zrotation Yrotation Xrotation
		JOINT LeftLeg
		{
			OFFSET 0.034277 -0.375199 -0.004496
			CHANNELS 3 Zrotation Yrotation Xrotation
			JOINT LeftFoot
			{
				OFFSET -0.013596 -0.397961 -0.043693
				CHANNELS 3 Zrotation Yrotation Xrotation
				JOINT LeftToe
				{
					OFFSET 0.026358 -0.055791 0.119288
					CHANNELS 3 Zrotation Yrotation Xrotation
					End Site
					{
						OFFSET 0.000000 0.000000 0.000000
					}
				}
			}
		}
	}
	JOINT RightUpLeg
	{
		OFFSET -0.067670 -0.090522 -0.004320
		CHANNELS 3 Zrotation Yrotation Xrotation
		JOINT RightLeg
		{
			OFFSET -0.038290 -0.382569 -0.008850
			CHANNELS 3 Zrotation Yrotation Xrotation
			JOINT RightFoot
			{
				OFFSET 0.015774 -0.398415 -0.042312
				CHANNELS 3 Zrotation Yrotation Xrotation
				JOINT RightToe
				{
					OFFSET -0.025372 -0.048144 0.123348
					CHANNELS 3 Zrotation Yrotation Xrotation
					End Site
					{
						OFFSET 0.000000 0.000000 0.000000
					}
				}
			}
		}
	}
	JOINT Spine
	{
		OFFSET -0.002533 0.108963 -0.026696
		CHANNELS 3 Zrotation Yrotation Xrotation
		JOINT Spine1
		{
			OFFSET 0.005487 0.135180 0.001092
			CHANNELS 3 Zrotation Yrotation Xrotation
			JOINT Spine2
			{
				OFFSET 0.001457 0.052922 0.025425
				CHANNELS 3 Zrotation Yrotation Xrotation
				JOINT Neck
				{
					OFFSET -0.002778 0.213870 -0.042857
					CHANNELS 3 Zrotation Yrotation Xrotation
					JOINT Head
					{
						OFFSET 0.005152 0.064970 0.051349
						CHANNELS 3 Zrotation Yrotation Xrotation
						End Site
						{
							OFFSET 0.000000 0.000000 0.000000
						}
					}
				}
				JOINT LeftShoulder
				{
					OFFSET 0.078845 0.121749 -0.034090
					CHANNELS 3 Zrotation Yrotation Xrotation
					JOINT LeftArm
					{
						OFFSET 0.090977 0.030469 -0.008868
						CHANNELS 3 Zrotation Yrotation Xrotation
						JOINT LeftForeArm
						{
							OFFSET 0.259612 -0.012772 -0.027456
							CHANNELS 3 Zrotation Yrotation Xrotation
							JOINT LeftHand
							{
								OFFSET 0.249234 0.008986 -0.001171
								CHANNELS 3 Zrotation Yrotation Xrotation
								End Site
								{
									OFFSET 0.000000 0.000000 0.000000
								}
							}
						}
					}
				}
				JOINT RightShoulder
				{
					OFFSET -0.081759 0.118833 -0.038615
					CHANNELS 3 Zrotation Yrotation Xrotation
					JOINT RightArm
					{
						OFFSET -0.096012 0.032551 -0.009143
						CHANNELS 3 Zrotation Yrotation Xrotation
						JOINT RightForeArm
						{
							OFFSET -0.253742 -0.013329 -0.021401
							CHANNELS 3 Zrotation Yrotation Xrotation
							JOINT RightHand
							{
								OFFSET -0.255298 0.007772 -0.005559
								CHANNELS 3 Zrotation Yrotation Xrotation
								End Site
								{
									OFFSET 0.000000 0.000000 0.000000
								}
							}
						}
					}
				}
			}
		}
	}
}
MOTION
Frames: 80
Frame Time: 0.050000
0.000000 0.952824 0.000000 -1.835302 -0.587806 5.071256 6.939367 -0.139417 0.365605 -0.933383 0.249626 -5.731425 5.114703 12.958015 13.251168 0.000000 0.000000 0.000000 -2.968743 0.299680 -2.609466 1.237356 -0.212617 -2.950976 -6.758169 -18.310221 28.034172 0.000000 0.000000 0.000000 -1.735598 0.066496 -0.890893 5.014413 -0.325195 -27.837229 -1.540253 -0.032127 27.115823 1.672968 0.310962 -22.903834 0.000000 0.000000 0.000000 -22.557955 5.723658 -4.611090 -54.805365 -1.355436 -8.332886 -16.220405 -28.095643 5.749263 0.000000 0.000000 0.000000 14.594220 -1.488756 -1.530385 61.893349 -1.546919 -9.475204 12.245672 30.480933 4.747151 0.000000 0.000000 0.000000 
-0.001323 0.952460 -0.000624 -1.999988 -1.054016 6.003214 7.271488 -0.167780 -0.161537 -1.143162 0.282066 -6.481143 5.367606 13.341742 13.613504 0.000000 0.000000 0.000000 -2.818474 0.394491 -3.772503 1.295832 -0.209793 -2.749913 -6.343939 -17.826947 27.452666 0.000000 0.000000 0.000000 -1.763769 0.099474 -1.849487 5.143531 -0.429635 -26.698281 -1.619428 0.372949 25.989992 1.685893 0.330226 -22.753303 0.000000 0.000000 0.000000 -22.860765 6.674346 -5.313847 -54.021254 -1.593324 -7.986160 -18.632942 -28.459940 6.438209 0.000000 0.000000 0.000000 14.257739 -1.813896 -1.675557 62.431744 -2.355790 -9.835213 12.616940 31.464856 5.018138 0.000000 0.000000 0.000000 
-0.002367 0.952242 -0.001281 -1.567185 -0.941242 5.595483 7.305965 -0.169035 -0.344471 -1.889616 0.303852 -5.518187 5.292133 13.207791 13.365326 0.000000 0.000000 0.000000 -2.889640 0.384301 -3.680897 0.636418 -0.135620 -2.067316 -6.256165 -17.662910 26.880207 0.000000 0.000000 0.000000 -1.626976 0.093528 -1.796445 4.694801 -0.317101 -26.976375 -1.959920 0.056436 26.820119 1.627006 0.326350 -22.998493 0.000000 0.000000 0.000000 -22.663364 6.159174 -4.861370 -53.714588 -2.092516 -7.846047 -18.759334 -29.638526 6.804021 0.000000 0.000000 0.000000 14.674632 -0.965789 -1.313874 62.030395 -1.936373 -9.659928 11.744425 32.696515 4.988246 0.000000 0.000000 0.000000 
-0.003342 0.952349 -0.002048 -1.745116 -1.401436 6.123403 7.688955 -0.190960 -0.989084 -2.197568 0.321742 -5.307710 5.564007 13.597663 13.540777 0.000000 0.000000 0.000000 -2.935345 0.467483 -4.705250 0.909143 -0.135473 -1.368156 -5.591720 -16.833535 26.498564 0.000000 0.000000 0.000000 -1.790462 0.116924 -2.421206 5.001165 -0.386193 -26.948553 -2.016452 -0.127785 26.588310 1.743102 0.150057 -22.532479 0.000000 0.000000 0.000000 -22.562990 6.982968 -5.229909 -54.018205 -2.372978 -7.723675 -18.858294 -30.412486 7.070175 0.000000 0.000000 0.000000 13.409080 -0.773974 -1.211829 62.626904 -1.845378 -9.683206 12.464655 33.552328 5.311305 0.000000 0.000000 0.000000 
-0.004231 0.952828 -0.002846 -1.731988 -1.209964 6.011709 7.679916 -0.199360 -1.248567 -2.060130 0.303638 -4.804988 5.469269 13.476135 13.559862 0.000000 0.000000 0.000000 -2.917975 0.472812 -4.795256 0.649884 -0.102016 -1.054230 -4.994541 -16.016908 26.791770 0.000000 0.000000 0.000000 -1.814612 0.105505 -2.044070 5.214373 -0.487961 -26.110335 -2.325079 0.021465 25.670233 1.856913 0.131748 -22.369021 0.000000 0.000000 0.000000 -22.450098 6.624369 -5.122622 -53.755035 -3.110345 -7.253226 -19.179818 -30.917976 7.225585 0.000000 0.000000 0.000000 13.263949 -1.206505 -1.385062 62.659142 -1.603807 -9.426811 13.288733 34.297762 5.703891 0.000000 0.000000 0.000000 
-0.004851 0.953139 -0.003462 -1.797264 -1.345623 6.080536 7.655860 -0.198796 -1.301584 -1.848627 0.290630 -4.859861 5.530347 13.574004 13.724449 0.000000 0.000000 0.000000 -2.880713 0.487873 -4.977841 0.455490 -0.074704 -0.795432 -4.152727 -14.864470 26.425285 0.000000 0.000000 0.000000 -1.979025 0.103426 -1.862843 5.354262 -0.486718 -26.569981 -2.209272 0.050675 26.108897 2.007379 -0.000064 -22.105196 0.000000 0.000000 0.000000 -22.787037 6.731520 -5.205221 -53.684370 -3.725993 -7.033239 -18.808087 -31.250688 7.222613 0.000000 0.000000 0.000000 12.450468 -1.070465 -1.254090 62.828522 -1.438969 -9.416477 14.168562 34.954310 6.110638 0.000000 0.000000 0.000000 
-0.005200 0.953116 -0.003882 -1.795726 -1.258496 5.985055 7.684770 -0.201215 -1.385249 -1.841039 0.285233 -4.609846 5.495759 13.523717 13.655288 0.000000 0.000000 0.000000 -2.883020 0.497299 -5.115119 0.370381 -0.050913 -0.363294 -3.906223 -14.503454 26.353339 0.000000 0.000000 0.000000 -1.954488 0.094468 -1.564417 5.223123 -0.489000 -26.129532 -2.226955 -0.052236 25.754729 2.006392 0.010687 -22.264547 0.000000 0.000000 0.000000 -23.080045 6.811522 -5.299983 -53.594114 -4.125773 -6.814347 -19.178410 -31.484671 7.387566 0.000000 0.000000 0.000000 12.340893 -0.832872 -1.147866 62.825310 -1.446007 -9.375413 14.304795 35.567178 6.259659 0.000000 0.000000 0.000000 
-0.005329 0.953315 -0.004122 -1.764910 -1.280437 5.902141 7.507219 -0.197524 -1.374490 -1.579966 0.264610 -4.492475 5.502804 13.538275 13.696479 0.000000 0.000000 0.000000 -2.648262 0.508163 -5.244198 0.177536 -0.015446 0.065335 -4.418635 -15.182140 26.044959 0.000000 0.000000 0.000000 -2.081569 0.090544 -1.356017 5.329714 -0.506369 -26.212323 -2.206940 0.169875 25.863174 1.933516 0.057480 -21.862305 0.000000 0.000000 0.000000 -23.533434 6.327100 -5.127466 -53.482334 -4.367271 -6.712085 -18.542704 -31.673541 7.227374 0.000000 0.000000 0.000000 12.484742 -0.625604 -1.021836 62.721419 -1.269110 -9.272383 14.417615 35.511408 6.307812 0.000000 0.000000 0.000000 
-0.005299 0.953376 -0.004258 -1.830687 -1.271464 5.787627 7.516314 -0.197677 -1.444160 -1.469846 0.249654 -4.164211 5.519649 13.555582 13.610689 0.000000 0.000000 0.000000 -2.453345 0.504048 -5.183051 -0.017754 0.014121 0.304016 -4.366656 -15.071034 25.660362 0.000000 0.000000 0.000000 -2.147361 0.087059 -1.200437 5.473993 -0.547795 -26.084222 -2.197747 0.519042 25.851512 2.142785 0.000865 -22.048085 0.000000 0.000000 0.000000 -23.348697 6.244931 -5.157464 -53.908173 -4.594018 -6.633576 -18.092076 -31.016623 6.902400 0.000000 0.000000 0.000000 12.708669 -0.530509 -0.935037 62.404074 -1.282617 -9.209704 14.088107 35.191631 6.162245 0.000000 0.000000 0.000000 
-0.005243 0.953769 -0.004400 -1.836603 -1.330270 5.643090 7.325554 -0.194122 -1.493407 -1.144856 0.216854 -3.797878 5.554395 13.607573 13.637436 0.000000 0.000000 0.000000 -2.487319 0.511979 -5.293329 -0.039209 0.031552 0.677715 -4.205196 -14.888790 25.948995 0.000000 0.000000 0.000000 -2.214136 0.083215 -1.031507 5.384517 -0.536553 -26.001745 -2.043600 0.820509 25.964946 2.040171 0.126108 -22.272804 0.000000 0.000000 0.000000 -23.282437 6.154449 -5.163620 -54.474419 -4.869931 -6.566795 -17.316132 -30.525726 6.550554 0.000000 0.000000 0.000000 12.682980 -0.206055 -0.732647 62.406800 -1.015101 -9.063838 13.572081 34.712165 5.923834 0.000000 0.000000 0.000000 
-0.005163 0.953769 -0.004550 -1.776027 -1.304778 5.591330 7.387097 -0.192639 -1.435922 -1.372772 0.235223 -3.831969 5.523717 13.563385 13.637068 0.000000 0.000000 0.000000 -2.475946 0.507425 -5.241260 -0.065775 0.036670 0.733112 -4.420135 -15.158042 25.727711 0.000000 0.000000 0.000000 -2.324373 0.081920 -0.906860 5.394936 -0.537701 -26.011237 -1.985769 1.107778 26.049214 1.999370 0.196944 -22.218158 0.000000 0.000000 0.000000 -23.405562 6.042160 -5.204496 -54.608845 -4.848755 -6.580293 -16.658474 -29.888865 6.192417 0.000000 0.000000 0.000000 12.957225 0.124120 -0.534481 62.455004 -0.820118 -8.963434 12.929683 34.045545 5.622929 0.000000 0.000000 0.000000 
-0.005109 0.953798 -0.004717 -1.765933 -0.959385 5.596974 7.550921 -0.201093 -1.459933 -1.612258 0.254814 -3.950798 5.336641 13.303980 13.586975 0.000000 0.000000 0.000000 -2.528774 0.509389 -5.286711 -0.006429 0.035175 0.858193 -4.473532 -15.182996 25.889178 0.000000 0.000000 0.000000 -2.453615 0.080055 -0.731359 5.446192 -0.533222 -26.185720 -1.971608 1.199416 26.075631 2.038291 0.226933 -22.248368 0.000000 0.000000 0.000000 -23.237423 5.810584 -5.138441 -55.102148 -4.792409 -6.635964 -16.255107 -29.468814 5.962156 0.000000 0.000000 0.000000 13.209581 0.381653 -0.363883 62.634226 -0.286345 -8.690601 11.851884 33.244227 5.180130 0.000000 0.000000 0.000000 
-0.005004 0.953673 -0.004995 -1.775008 -0.744816 5.509913 7.690230 -0.204763 -1.460374 -1.804295 0.267554 -3.894533 5.229768 13.149144 13.478319 0.000000 0.000000 0.000000 -2.489871 0.504153 -5.233012 -0.016007 0.033068 0.781651 -4.747998 -15.570412 26.418198 0.000000 0.000000 0.000000 -2.675939 0.080257 -0.574520 5.503564 -0.541675 -26.200426 -1.799219 1.151627 25.970648 1.938839 0.296583 -22.165433 0.000000 0.000000 0.000000 -23.345858 5.602690 -5.063791 -55.396118 -5.000221 -6.554673 -15.864171 -29.028788 5.749550 0.000000 0.000000 0.000000 13.773483 0.998976 -0.067601 62.524249 0.301654 -8.365772 10.548964 32.388668 4.651941 0.000000 0.000000 0.000000 
-0.004792 0.953627 -0.005488 -1.818557 -0.482769 5.371577 7.956066 -0.211802 -1.540350 -2.153754 0.288814 -3.641937 5.105191 12.961595 13.317645 0.000000 0.000000 0.000000 -2.510054 0.493152 -5.116980 0.109910 0.021719 0.849092 -4.845163 -15.660582 26.509005 0.000000 0.000000 0.000000 -2.963791 0.079074 -0.237292 5.681726 -0.567396 -26.353125 -1.603859 1.358210 26.007874 1.925670 0.367210 -22.191683 0.000000 0.000000 0.000000 -23.258198 5.209001 -4.926769 -55.735628 -5.281135 -6.451206 -15.631786 -28.629798 5.574111 0.000000 0.000000 0.000000 14.644778 1.570845 0.265397 62.150366 1.212255 -7.862697 9.267963 31.454716 4.167559 0.000000 0.000000 0.000000 
-0.004292 0.953854 -0.006302 -1.860701 -0.561706 5.201495 8.064279 -0.208660 -1.566541 -2.333603 0.299033 -3.334755 5.141117 13.005765 13.286251 0.000000 0.000000 0.000000 -2.631357 0.477796 -4.942299 0.239718 -0.001529 0.613558 -4.656571 -15.463921 27.032710 0.000000 0.000000 0.000000 -3.020853 0.077175 -0.124269 5.630535 -0.582529 -26.036860 -1.332488 1.866971 25.943847 1.905189 0.472628 -22.393123 0.000000 0.000000 0.000000 -22.988549 4.563682 -4.630250 -55.941490 -5.737394 -6.244490 -15.401318 -28.665793 5.484368 0.000000 0.000000 0.000000 15.578927 2.305398 0.709952 61.610388 2.424204 -7.189120 7.970215 30.794526 3.739926 0.000000 0.000000 0.000000 
-0.003264 0.954220 -0.007390 -1.944606 -0.119347 4.941688 8.323515 -0.217540 -1.689054 -2.652598 0.317888 -2.917525 4.915806 12.681428 13.120799 0.000000 0.000000 0.000000 -2.857588 0.461026 -4.790884 0.448289 -0.020747 0.726180 -4.241356 -14.885351 27.750737 0.000000 0.000000 0.000000 -3.268760 0.074723 0.219186 5.614463 -0.598887 -25.702361 -0.900667 2.051456 25.892143 1.329758 0.907459 -22.420024 0.000000 0.000000 0.000000 -22.733149 3.807440 -4.281249 -56.368377 -6.673261 -5.826558 -15.472029 -28.805623 5.496763 0.000000 0.000000 0.000000 16.125517 3.368496 1.357678 61.028260 3.608422 -6.532332 7.036725 30.846915 3.518098 0.000000 0.000000 0.000000 
-0.001644 0.955058 -0.008991 -2.043957 0.127064 4.663537 8.284279 -0.220065 -1.816536 -2.013751 0.261215 -2.740675 4.135289 11.626869 13.855447 0.000000 0.000000 0.000000 -2.993548 0.432609 -4.462338 0.641671 -0.050744 0.487089 -4.088210 -14.698183 28.412950 0.000000 0.000000 0.000000 -3.449687 0.070796 0.651667 5.564697 -0.595286 -25.588434 -0.330995 2.431835 26.047097 0.773793 1.344662 -22.519212 0.000000 0.000000 0.000000 -22.596084 2.838372 -3.838220 -56.489317 -7.913480 -5.260409 -15.680038 -28.978790 5.549340 0.000000 0.000000 0.000000 16.617759 4.471980 2.065333 60.270509 4.817359 -5.899556 6.273456 30.967742 3.352137 0.000000 0.000000 0.000000 
0.000810 0.955544 -0.011372 -2.061866 0.757370 4.527903 8.448409 -0.238392 -2.188618 -1.613261 0.230336 -2.972488 2.742487 9.867122 15.283982 0.000000 0.000000 0.000000 -3.256724 0.430510 -4.518934 0.894638 -0.073082 0.700970 -4.242744 -14.832676 28.988945 0.000000 0.000000 0.000000 -3.655986 0.067602 1.268363 5.536777 -0.594973 -25.395798 0.132229 2.702790 26.014799 -0.080543 1.964773 -22.242064 0.000000 0.000000 0.000000 -22.179970 1.942503 -3.455048 -56.990825 -8.776033 -4.862167 -16.020626 -29.765110 5.753368 0.000000 0.000000 0.000000 16.925248 5.486667 2.759925 59.498013 5.914264 -5.301179 5.437653 31.707134 3.244660 0.000000 0.000000 0.000000 
0.004039 0.955736 -0.015164 -1.902670 0.957338 4.522041 8.295602 -0.253096 -2.835708 -1.276180 0.206753 -3.148509 1.694273 8.770659 17.210956 0.000000 0.000000 0.000000 -3.759064 0.435399 -4.678888 1.209078 -0.101136 0.979094 -4.246291 -14.715055 28.134890 0.000000 0.000000 0.000000 -3.817871 0.065525 2.080829 5.290083 -0.543905 -25.314383 0.678297 3.193267 26.094239 -0.786483 2.512119 -22.450125 0.000000 0.000000 0.000000 -21.841532 1.109779 -3.104424 -57.476366 -9.951217 -4.311790 -16.051540 -30.495802 5.867926 0.000000 0.000000 0.000000 17.037554 6.539483 3.466668 59.242813 7.253870 -4.626942 4.707548 32.193357 3.133268 0.000000 0.000000 0.000000 
0.008143 0.955294 -0.020599 -1.666598 1.946356 4.633030 8.183724 -0.297443 -4.022985 -1.448325 0.214632 -3.022137 0.676548 7.821485 18.708294 0.000000 0.000000 0.000000 -4.145741 0.463946 -5.314602 1.521195 -0.119501 1.848213 -5.499936 -16.159481 27.476875 0.000000 0.000000 0.000000 -4.136329 0.068816 3.448712 4.921322 -0.453862 -25.128755 1.423425 3.397900 26.298875 -2.078591 3.457795 -23.084304 0.000000 0.000000 0.000000 -22.281406 -0.612830 -2.419469 -57.915606 -11.826109 -3.399808 -14.971186 -30.997544 5.608668 0.000000 0.000000 0.000000 17.458498 8.462445 4.730707 58.568443 9.017629 -3.775169 2.645673 33.562129 2.744844 0.000000 0.000000 0.000000 
0.012711 0.954691 -0.027511 -1.360603 2.876098 4.669065 7.740997 -0.354289 -5.546383 -1.706551 0.203767 -1.539048 0.316981 7.326075 18.189474 0.000000 0.000000 0.000000 -4.663767 0.491084 -6.121066 1.898418 -0.148216 3.031756 -6.776350 -17.686261 26.754597 0.000000 0.000000 0.000000 -4.485443 0.076554 5.336602 4.879116 -0.495868 -24.020126 1.630352 4.164033 25.412484 -2.823904 4.099614 -23.013701 0.000000 0.000000 0.000000 -22.240060 -2.710114 -1.654593 -58.657028 -13.836298 -2.255937 -13.139431 -31.491332 5.049458 0.000000 0.000000 0.000000 17.633888 10.773816 6.273874 58.492486 11.230855 -2.552960 0.118787 33.849216 2.062014 0.000000 0.000000 0.000000 
0.017585 0.953597 -0.035353 -1.276816 4.588034 4.623757 7.794408 -0.428506 -7.224923 -2.410760 0.236078 -0.012717 -0.403857 6.361474 17.510270 0.000000 0.000000 0.000000 -5.228207 0.492411 -6.901014 2.500140 -0.234997 3.949855 -8.207448 -19.320191 27.912427 0.000000 0.000000 0.000000 -4.652873 0.066904 7.587741 4.516954 -0.403873 -23.536481 2.493830 4.361846 24.849563 -4.093351 5.017711 -22.931518 0.000000 0.000000 0.000000 -22.834017 -4.579284 -1.084817 -59.672627 -16.117565 -0.937326 -11.448906 -31.660308 4.492828 0.000000 0.000000 0.000000 17.344789 12.861719 7.611700 57.792773 13.456361 -1.347605 -2.038602 34.662498 1.492375 0.000000 0.000000 0.000000 
0.022117 0.952928 -0.043520 -1.025999 6.200961 4.803837 7.425086 -0.527857 -8.987273 -2.729433 0.239545 1.289843 -1.115722 5.469158 17.174972 0.000000 0.000000 0.000000 -5.561076 0.490074 -7.641936 2.831393 -0.298169 4.675187 -10.216321 -21.702679 28.127061 0.000000 0.000000 0.000000 -4.726011 0.044743 9.701437 4.379336 -0.356397 -23.137898 2.905255 5.069928 24.346803 -4.250784 5.336396 -22.852584 0.000000 0.000000 0.000000 -23.023241 -6.881902 -0.363021 -60.453420 -18.227137 0.352371 -9.848398 -32.101363 3.956330 0.000000 0.000000 0.000000 16.822707 15.396002 9.229720 57.700598 16.215836 0.180493 -4.922236 34.072943 0.621633 0.000000 0.000000 0.000000 
0.026032 0.951626 -0.051780 -0.478652 8.165224 5.362825 7.013717 -0.693936 -11.543046 -3.494561 0.281248 3.230153 -1.952596 4.448767 16.930695 0.000000 0.000000 0.000000 -6.446107 0.455800 -8.955998 3.317463 -0.406684 5.803785 -11.986715 -23.642128 28.799448 0.000000 0.000000 0.000000 -4.744792 -0.006148 12.253428 3.891358 -0.160054 -23.765628 3.765760 5.690215 24.578861 -5.006981 6.020743 -21.889807 0.000000 0.000000 0.000000 -23.463663 -9.071940 0.239009 -61.646709 -20.549247 1.747820 -8.407970 -33.157535 3.545807 0.000000 0.000000 0.000000 16.306980 17.462831 10.618672 57.574217 18.973313 1.639343 -8.924034 33.853439 -0.465710 0.000000 0.000000 0.000000 
0.029186 0.950748 -0.059955 -0.115827 9.729142 6.079221 6.622462 -0.873386 -13.768701 -3.903403 0.295405 4.451576 -2.629299 3.703093 16.985633 0.000000 0.000000 0.000000 -6.774328 0.446070 -10.553601 3.371106 -0.454914 7.262855 -13.553504 -25.432656 28.760584 0.000000 0.000000 0.000000 -4.496333 -0.115065 14.643188 3.721891 -0.099400 -23.365126 4.327164 6.554051 24.085418 -5.422216 6.472970 -21.902730 0.000000 0.000000 0.000000 -24.357988 -11.364445 0.815383 -61.813069 -22.739639 3.233719 -7.092937 -34.003540 3.087207 0.000000 0.000000 0.000000 15.801058 19.949661 12.162396 56.201807 22.867575 3.621714 -13.143031 31.341913 -1.566573 0.000000 0.000000 0.000000 
0.031735 0.949111 -0.067790 0.284738 10.615708 6.800412 6.180321 -1.071821 -15.969711 -4.243161 0.306039 5.910352 -2.910290 3.392679 16.934072 0.000000 0.000000 0.000000 -7.686681 0.367643 -12.363500 3.932074 -0.609286 8.592886 -14.477679 -26.364577 29.427179 0.000000 0.000000 0.000000 -4.568582 -0.195138 17.040975 4.043950 -0.134013 -23.745714 5.204297 7.640313 24.694412 -5.966855 7.008803 -21.367011 0.000000 0.000000 0.000000 -25.479539 -13.622508 1.449428 -61.950391 -25.052128 4.716704 -4.957737 -35.071307 2.415237 0.000000 0.000000 0.000000 14.322887 22.574215 13.378892 55.650237 26.907198 5.805541 -17.318955 29.025288 -2.421601 0.000000 0.000000 0.000000 
0.033823 0.947490 -0.074640 0.443288 10.766847 7.686027 6.049809 -1.224205 -17.794466 -4.575561 0.337355 6.645628 -2.830825 3.518435 16.913751 0.000000 0.000000 0.000000 -8.129659 0.332189 -14.285866 4.421935 -0.745535 9.655170 -15.470583 -27.591073 29.441534 0.000000 0.000000 0.000000 -4.045252 -0.371887 19.164734 3.755327 -0.061365 -23.462822 5.622333 8.492741 24.228616 -5.923279 7.056500 -21.214019 0.000000 0.000000 0.000000 -26.291437 -15.157912 1.959702 -61.711002 -26.668455 5.826912 -3.807148 -36.334618 2.052797 0.000000 0.000000 0.000000 14.108507 24.433011 14.438430 53.886281 30.217294 7.251700 -20.276948 27.044193 -2.886861 0.000000 0.000000 0.000000 
0.035455 0.946022 -0.079984 0.605082 10.358630 8.365738 5.722796 -1.364909 -19.327447 -4.493382 0.321007 7.595161 -2.488120 3.931796 16.823427 0.000000 0.000000 0.000000 -9.091779 0.221930 -16.104716 5.242354 -0.959135 10.859641 -15.061913 -27.113498 29.434814 0.000000 0.000000 0.000000 -4.177361 -0.414879 21.077176 4.265130 -0.156543 -24.157906 6.090382 9.263128 24.940513 -5.368411 6.821291 -21.394911 0.000000 0.000000 0.000000 -26.339572 -16.511035 2.610695 -62.689622 -28.775546 7.148906 -1.498862 -38.137368 1.344485 0.000000 0.000000 0.000000 12.761632 26.348748 15.019976 53.170666 32.918691 8.618233 -23.258109 26.839461 -3.460734 0.000000 0.000000 0.000000 
0.036823 0.944931 -0.083910 0.449223 8.977849 8.734082 5.889681 -1.343245 -19.981830 -4.622699 0.363608 7.920877 -1.708367 4.842468 16.706419 0.000000 0.000000 0.000000 -9.132867 0.282356 -17.243261 5.272168 -0.954814 11.881308 -13.525693 -25.782290 26.656889 0.000000 0.000000 0.000000 -3.810274 -0.497937 22.505664 4.254842 -0.168965 -24.181102 6.552891 9.393435 24.856365 -5.473032 6.774436 -21.785520 0.000000 0.000000 0.000000 -26.735415 -16.689536 3.025450 -62.494930 -30.321427 8.022395 0.716074 -40.083283 0.707888 0.000000 0.000000 0.000000 11.308723 28.040943 15.140900 53.579553 35.370499 10.204040 -26.206856 26.620965 -4.001911 0.000000 0.000000 0.000000 
0.038324 0.943981 -0.086923 0.395399 7.641739 8.643022 6.345449 -1.241612 -20.153267 -5.491082 0.526138 8.376638 -0.985335 5.695639 16.670353 0.000000 0.000000 0.000000 -9.270054 0.326907 -17.771924 5.289357 -0.942751 12.845834 -12.079844 -24.371837 24.063887 0.000000 0.000000 0.000000 -3.472523 -0.605123 24.457979 4.618222 -0.231676 -25.064051 6.552003 9.516580 25.410776 -4.926231 6.388537 -21.729713 0.000000 0.000000 0.000000 -26.303777 -18.338104 4.441365 -62.814675 -32.111169 8.994342 4.164695 -43.759272 -0.485214 0.000000 0.000000 0.000000 10.064302 29.179151 15.060195 53.851151 37.829480 11.705806 -29.497234 26.703867 -4.627530 0.000000 0.000000 0.000000 
0.040292 0.943553 -0.089704 0.081868 5.111717 8.555417 6.725952 -1.078394 -20.182059 -5.758509 0.636566 8.916596 0.302119 7.235253 16.694944 0.000000 0.000000 0.000000 -9.137836 0.481290 -18.705366 5.078739 -0.823235 14.016809 -9.952603 -21.943250 21.507730 0.000000 0.000000 0.000000 -3.518664 -0.488890 25.486267 4.864851 -0.303485 -25.496654 6.730943 9.183760 25.710364 -5.107563 6.265148 -21.917309 0.000000 0.000000 0.000000 -25.785682 -18.250602 5.206190 -63.385772 -33.509833 9.743646 7.264482 -48.072169 -1.600831 0.000000 0.000000 0.000000 9.313380 29.960240 14.835183 54.488523 39.754844 12.878912 -32.343753 27.136713 -5.228271 0.000000 0.000000 0.000000 
0.042857 0.943153 -0.092375 -0.414218 1.878973 8.226802 7.574350 -0.787365 -19.816086 -6.567797 0.882462 9.457649 1.913349 9.166384 16.846085 0.000000 0.000000 0.000000 -8.788870 0.711806 -19.611535 4.480372 -0.558760 15.124160 -7.355630 -18.564420 19.714900 0.000000 0.000000 0.000000 -3.519182 -0.319134 26.623123 6.057867 -0.611759 -25.607963 5.488581 8.869645 25.880101 -5.440080 6.202305 -21.746729 0.000000 0.000000 0.000000 -24.864821 -18.481038 6.284000 -62.286763 -35.982083 10.745634 14.512198 -52.741096 -4.908991 0.000000 0.000000 0.000000 11.291344 30.878376 15.643742 52.222558 40.801343 12.243849 -34.937894 28.829995 -6.245474 0.000000 0.000000 0.000000 
0.045679 0.942395 -0.094879 -0.888296 -1.646101 7.930943 8.133523 -0.511340 -19.122281 -6.957694 1.075241 9.580426 3.687113 11.269612 16.954621 0.000000 0.000000 0.000000 -8.317207 0.987288 -20.497273 3.916033 -0.270344 16.035259 -5.246149 -15.711028 18.100133 0.000000 0.000000 0.000000 -3.403849 -0.117009 27.623167 6.574654 -0.801240 -25.347298 4.758498 7.762481 25.295074 -5.399063 5.728012 -20.844985 0.000000 0.000000 0.000000 -24.426833 -18.866167 7.706291 -60.515769 -39.087116 12.043874 24.804387 -57.402832 -10.392428 0.000000 0.000000 0.000000 11.365829 30.446203 14.887202 53.358160 41.453390 12.790446 -37.583438 31.927062 -7.784278 0.000000 0.000000 0.000000 
0.048502 0.942696 -0.097172 -1.355417 -4.940291 7.866338 8.274863 -0.315117 -18.815310 -6.640065 1.134639 9.977181 5.324434 13.242707 17.463768 0.000000 0.000000 0.000000 -7.544326 1.315174 -21.579952 2.795559 0.156333 16.786515 -3.234232 -12.921663 17.628880 0.000000 0.000000 0.000000 -3.109142 0.046366 28.394833 8.079375 -1.164528 -25.406252 2.967768 5.016979 24.763303 -6.799930 5.886823 -23.075580 0.000000 0.000000 0.000000 -24.430453 -18.811006 9.346116 -56.341404 -43.691397 13.271544 41.580830 -58.366938 -19.164693 0.000000 0.000000 0.000000 11.036741 30.909651 14.125816 53.658016 41.518970 12.667758 -39.678143 37.138831 -10.387447 0.000000 0.000000 0.000000 
0.050421 0.943645 -0.098734 -1.524050 -7.920269 8.120346 8.043504 -0.202009 -18.522858 -6.156387 1.118387 9.759777 6.797263 14.989544 18.353044 0.000000 0.000000 0.000000 -7.641533 1.517253 -22.419330 2.486050 0.353351 16.907251 -0.956308 -9.453905 16.928096 0.000000 0.000000 0.000000 -3.052361 0.264611 28.420625 9.563157 -1.510866 -25.312383 1.513805 1.505742 24.153579 -8.682098 6.157938 -24.904987 0.000000 0.000000 0.000000 -24.082679 -18.783265 11.080912 -51.233653 -49.061821 14.231877 57.407813 -55.371848 -25.794391 0.000000 0.000000 0.000000 10.269014 30.351113 12.731311 54.354241 39.912592 11.669826 -41.265836 45.633071 -14.606077 0.000000 0.000000 0.000000 
0.050466 0.945357 -0.099018 -1.628900 -9.693331 8.439723 7.820133 -0.157534 -17.754883 -5.626926 1.000049 8.373499 7.647269 15.950616 19.232671 0.000000 0.000000 0.000000 -7.507888 1.700831 -23.259486 2.064127 0.554491 17.477998 0.472788 -7.201774 16.604519 0.000000 0.000000 0.000000 -3.440686 0.528302 28.561313 11.418930 -1.743468 -26.314735 -1.309244 -3.107343 24.341148 -8.790242 5.300784 -26.513647 0.000000 0.000000 0.000000 -20.833805 -17.743768 11.572079 -48.456128 -56.308805 17.157107 67.724586 -48.813247 -26.187972 0.000000 0.000000 0.000000 9.344380 29.691905 11.290999 55.321272 40.260612 11.580563 -43.529358 53.740461 -20.073048 0.000000 0.000000 0.000000 
0.047640 0.947607 -0.097619 -2.473730 -11.753861 9.046420 8.478900 0.024512 -16.437076 -5.008092 0.841851 6.161105 8.660172 17.044129 20.266817 0.000000 0.000000 0.000000 -6.183885 1.949221 -22.733453 1.512560 0.637603 15.564717 1.569026 -5.453037 16.037824 0.000000 0.000000 0.000000 -4.227145 0.866496 27.546748 12.717318 -1.960536 -26.385044 -2.456249 -6.391169 24.552841 -10.000419 5.216527 -27.954482 0.000000 0.000000 0.000000 -17.817702 -17.511377 11.896843 -47.084242 -62.925254 20.856340 72.898561 -42.367619 -23.437247 0.000000 0.000000 0.000000 6.888622 28.837800 9.913478 56.759842 39.889941 11.102202 -48.186903 62.346039 -28.473853 0.000000 0.000000 0.000000 
0.041644 0.950134 -0.095201 -2.889558 -13.835111 9.331129 8.700843 0.130073 -15.121991 -4.332849 0.703581 4.568693 10.057072 18.563626 21.986122 0.000000 0.000000 0.000000 -5.360072 2.096922 -22.181833 1.656305 0.608435 14.615023 2.198805 -4.146210 14.808420 0.000000 0.000000 0.000000 -5.214218 1.323718 27.589706 13.507960 -1.945863 -27.187171 -4.481715 -8.914676 25.011152 -9.414335 4.185444 -30.077614 0.000000 0.000000 0.000000 -15.861026 -16.151085 11.433114 -46.246927 -66.374324 23.132765 77.462051 -40.268617 -23.235848 0.000000 0.000000 0.000000 4.160288 28.359855 9.064287 59.117299 40.560380 11.201272 -57.825472 69.267174 -41.206378 0.000000 0.000000 0.000000 
0.033224 0.951827 -0.092931 -3.428504 -15.957962 9.578426 9.741436 0.346544 -13.779540 -4.543643 0.742525 3.356782 11.162414 19.635496 23.377615 0.000000 0.000000 0.000000 -4.277243 2.164445 -21.005448 1.408486 0.606992 13.156450 3.300842 -1.452977 12.941526 0.000000 0.000000 0.000000 -6.000731 1.687842 27.155109 12.463961 -1.683204 -27.546489 -5.048255 -9.650833 24.747061 -8.242492 3.247733 -30.108568 0.000000 0.000000 0.000000 -14.631644 -16.155958 11.435383 -46.473838 -66.491430 23.839914 80.738797 -42.177740 -25.832104 0.000000 0.000000 0.000000 2.641005 26.492864 8.164518 60.516864 40.226286 10.776804 -66.704388 73.996329 -53.190382 0.000000 0.000000 0.000000 
0.023468 0.951741 -0.092085 -4.031511 -18.448446 9.805896 10.828569 0.652120 -13.542281 -4.685013 0.844567 4.295120 12.696261 21.122768 24.720248 0.000000 0.000000 0.000000 -2.714758 2.412247 -20.964450 1.339287 0.724657 13.676085 3.266130 -0.546297 10.748276 0.000000 0.000000 0.000000 -7.541067 2.336130 26.994403 11.695101 -1.494052 -27.813386 -5.898019 -9.262281 24.123727 -6.612772 2.292628 -28.114411 0.000000 0.000000 0.000000 -14.551480 -15.040875 10.969659 -47.992297 -65.431569 24.392606 81.996043 -47.695445 -30.765630 0.000000 0.000000 0.000000 0.959645 26.140002 7.992689 60.150680 40.839614 10.588269 -76.183289 75.275234 -63.323334 0.000000 0.000000 0.000000 
0.014383 0.950285 -0.092609 -4.226862 -20.538361 10.032386 12.272846 1.033353 -13.531521 -6.654653 1.350701 5.166133 14.232315 23.269611 22.224188 0.000000 0.000000 0.000000 -1.805361 2.573406 -20.984034 1.305341 0.844982 14.344233 3.181922 0.918214 8.081909 0.000000 0.000000 0.000000 -8.299432 2.665163 26.318681 8.601615 -1.012890 -27.661595 -5.410168 -9.241299 23.355573 -5.136430 1.301121 -26.450031 0.000000 0.000000 0.000000 -14.472353 -15.537662 11.466154 -47.821875 -64.575170 23.931296 81.872925 -51.696913 -33.809593 0.000000 0.000000 0.000000 -2.059510 25.471616 7.802495 58.777837 43.888857 11.032384 -78.542660 72.987842 -63.837800 0.000000 0.000000 0.000000 
0.007539 0.947167 -0.093219 -4.015801 -22.609134 9.952329 13.396111 1.507146 -14.672698 -7.727406 1.996528 9.067043 13.621298 23.008155 17.930820 0.000000 0.000000 0.000000 -0.882110 2.885099 -21.839303 1.332915 1.107044 16.367684 1.809337 -0.430888 5.675391 0.000000 0.000000 0.000000 -9.918912 3.330264 26.130514 7.056540 -0.603767 -28.739813 -6.208585 -9.713661 24.178936 -4.516150 0.729765 -24.209027 0.000000 0.000000 0.000000 -14.789486 -15.700920 12.044427 -47.298696 -64.082863 23.289243 79.882707 -55.455026 -35.278971 0.000000 0.000000 0.000000 -5.176916 25.176119 7.821971 50.922057 45.535112 8.504703 -81.390341 64.681259 -59.573235 0.000000 0.000000 0.000000 
0.002404 0.942731 -0.092913 -4.214317 -25.277109 9.786031 14.520737 2.044432 -15.223822 -9.020842 2.864443 12.181912 14.448642 24.875197 14.455128 0.000000 0.000000 0.000000 -0.103361 3.242008 -22.771409 1.346429 1.665558 20.067082 1.027711 1.027950 1.720396 0.000000 0.000000 0.000000 -10.350700 3.733132 26.303365 4.900641 -0.262121 -28.850296 -6.689887 -11.501553 23.723838 -4.218758 0.122922 -22.692596 0.000000 0.000000 0.000000 -14.996435 -16.410476 13.233652 -47.124467 -64.286416 23.554620 78.167194 -57.668810 -35.349805 0.000000 0.000000 0.000000 -7.937396 23.630123 7.713832 41.392139 47.005441 5.052988 -76.694494 57.180796 -51.035367 0.000000 0.000000 0.000000 
-0.002067 0.938503 -0.091008 -4.486557 -28.610440 9.311159 15.441593 2.705668 -15.857368 -9.757144 4.125456 16.975754 14.837752 26.254217 11.188493 0.000000 0.000000 0.000000 1.123515 3.813868 -24.064056 1.484096 2.301091 23.300181 0.268608 -0.140689 0.914224 0.000000 0.000000 0.000000 -11.319624 4.270608 25.934835 4.923995 -0.280418 -28.776359 -8.960123 -13.471971 23.727463 -5.554467 0.458360 -21.233331 0.000000 0.000000 0.000000 -15.129695 -16.114487 13.995382 -44.509134 -63.959587 21.926619 85.039086 -61.977851 -42.669597 0.000000 0.000000 0.000000 -10.131160 23.016951 8.028194 33.527145 43.578159 1.376833 -80.951370 48.301306 -49.687591 0.000000 0.000000 0.000000 
-0.007238 0.935139 -0.088156 -4.466124 -31.478897 9.321830 16.517942 3.264723 -15.551771 -10.735099 5.207965 19.086185 14.951604 27.157229 8.806221 0.000000 0.000000 0.000000 1.363042 4.362417 -25.622684 2.258826 2.881286 26.636024 -0.244381 -0.156500 -0.385537 0.000000 0.000000 0.000000 -11.846762 4.518067 25.109088 4.576683 0.041748 -30.567182 -11.471104 -17.020415 26.468067 -5.482028 -0.334977 -19.411261 0.000000 0.000000 0.000000 -14.918136 -17.397818 15.928094 -38.657442 -65.848906 19.602082 90.570775 -60.475185 -44.346519 0.000000 0.000000 0.000000 -12.608918 19.575586 8.232829 28.192833 40.075902 -1.359181 -89.295601 37.703770 -50.983339 0.000000 0.000000 0.000000 
-0.013948 0.931034 -0.085072 -4.376446 -33.308370 9.611339 16.810431 3.738316 -16.530762 -9.722364 5.840457 22.776437 14.249652 25.766615 8.790359 0.000000 0.000000 0.000000 0.829719 5.229888 -28.647235 4.734073 3.117549 30.851514 -0.822913 -2.581643 0.514319 0.000000 0.000000 0.000000 -12.182126 4.534650 23.925069 4.954207 -0.324617 -28.194745 -14.618116 -22.633941 25.207521 -7.559824 0.656741 -17.071056 0.000000 0.000000 0.000000 -12.020083 -16.818614 15.508927 -36.889078 -66.492766 20.662589 100.498140 -60.542891 -50.740695 0.000000 0.000000 0.000000 -15.685179 17.890551 9.341193 25.357529 34.887466 -2.470909 -94.851992 22.890118 -46.668275 0.000000 0.000000 0.000000 
-0.021642 0.924820 -0.082648 -4.899580 -38.054464 9.995747 18.225392 4.773870 -16.245650 -9.147573 7.112279 26.172102 13.179768 24.202043 7.252607 0.000000 0.000000 0.000000 1.210079 6.603480 -31.650193 7.036740 3.854877 35.473221 -0.948553 -3.708074 1.293122 0.000000 0.000000 0.000000 -13.398225 5.146452 23.021017 5.585734 -0.177557 -29.403865 -17.043761 -26.124174 26.331876 -9.421739 1.426292 -15.729192 0.000000 0.000000 0.000000 -10.164490 -17.367715 16.247582 -32.880368 -68.893981 20.842716 100.763696 -54.668147 -43.858308 0.000000 0.000000 0.000000 -18.918595 16.636788 11.032480 23.727490 33.864296 -3.528454 -97.196326 11.722014 -43.320127 0.000000 0.000000 0.000000 
-0.030157 0.915546 -0.081012 -5.060817 -39.126006 10.196469 18.612642 5.567209 -18.132805 -6.806350 7.667362 31.411583 10.702498 20.387789 4.494893 0.000000 0.000000 0.000000 0.638357 7.539130 -34.233793 9.896243 3.868142 39.560159 -1.499592 -5.342499 1.457894 0.000000 0.000000 0.000000 -13.415366 5.277616 23.013635 5.456718 -0.222788 -28.887521 -19.887639 -31.803134 26.746481 -8.684131 -0.349599 -18.556763 0.000000 0.000000 0.000000 -5.800388 -19.298966 16.256740 -29.875714 -72.900552 23.837110 101.845403 -45.588726 -34.479477 0.000000 0.000000 0.000000 -23.803421 15.330640 13.653459 23.376727 31.797596 -3.998518 -96.411195 2.545483 -41.469609 0.000000 0.000000 0.000000 
-0.039232 0.903766 -0.080140 -6.158306 -44.542292 9.938337 19.781903 6.577129 -16.632440 -4.721480 8.870385 35.241016 8.436795 16.856022 1.161946 0.000000 0.000000 0.000000 1.639310 9.199406 -36.239475 13.367632 4.346523 43.525404 -1.979650 -8.509233 3.660562 0.000000 0.000000 0.000000 -14.681673 5.914389 22.024500 5.032629 0.122217 -30.263480 -22.393728 -34.067381 30.405634 -8.161955 -1.485446 -18.572494 0.000000 0.000000 0.000000 -0.789421 -20.778781 15.030058 -23.300379 -75.694527 23.902839 96.263334 -32.496163 -18.999623 0.000000 0.000000 0.000000 -28.600178 14.189005 16.585799 19.043665 33.698703 -5.880192 -95.378657 -1.707664 -44.446912 0.000000 0.000000 0.000000 
-0.049751 0.893175 -0.079151 -6.658433 -46.461258 9.727837 20.913066 7.339789 -16.092384 -2.370078 8.997212 38.232465 4.849412 10.757000 -4.939298 0.000000 0.000000 0.000000 2.504721 9.981070 -36.810957 15.414585 4.661122 46.621876 -3.051024 -10.078836 2.183667 0.000000 0.000000 0.000000 -15.336916 6.295942 21.855569 5.617304 0.182742 -30.752697 -25.646913 -39.550373 32.447527 -5.644116 -3.209734 -18.686622 0.000000 0.000000 0.000000 1.467268 -21.821512 16.235084 -10.205959 -76.646744 16.178096 97.278428 -21.642278 -8.345766 0.000000 0.000000 0.000000 -35.787404 12.419578 20.644822 14.902903 36.808441 -9.072086 -93.552173 -5.233337 -48.024140 0.000000 0.000000 0.000000 
-0.062168 0.885885 -0.078695 -8.079986 -53.751936 9.968881 21.769189 8.037560 -12.737953 0.504946 9.999660 40.467020 2.586774 6.255459 -5.227856 0.000000 0.000000 0.000000 2.906324 11.211409 -37.365779 19.290218 5.180430 48.498135 -1.709088 -9.157117 4.919530 0.000000 0.000000 0.000000 -17.187977 7.038099 19.853127 5.191332 0.155676 -30.240167 -25.650523 -38.915981 32.255622 -5.854596 -2.515055 -16.191637 0.000000 0.000000 0.000000 4.990414 -22.639905 15.291722 4.382014 -75.921776 7.538991 93.831982 -15.136972 -2.947277 0.000000 0.000000 0.000000 -37.529978 13.527939 22.343392 10.041570 34.651092 -9.241916 -94.034849 -7.488299 -51.443731 0.000000 0.000000 0.000000 
-0.075982 0.886133 -0.079628 -9.441399 -58.011638 9.632096 21.632749 7.288901 -7.503720 2.901512 9.347712 39.220437 -0.123423 1.743976 -9.651071 0.000000 0.000000 0.000000 4.558841 11.033320 -35.293895 19.297952 6.117162 47.560786 1.063957 -6.179387 8.675775 0.000000 0.000000 0.000000 -18.084384 7.556579 19.149677 4.480511 0.599509 -31.912081 -30.219338 -41.488056 37.401110 -4.576500 -2.305298 -13.819255 0.000000 0.000000 0.000000 8.583866 -23.804715 15.698058 18.839793 -71.982250 -0.640915 94.077096 -7.140697 5.079930 0.000000 0.000000 0.000000 -40.405310 12.893576 23.741543 4.300498 33.389272 -10.776411 -92.860536 -8.161153 -56.041513 0.000000 0.000000 0.000000 
-0.088297 0.888044 -0.082505 -11.519202 -65.761981 11.781977 22.235451 8.075149 -4.251212 2.649381 10.186103 36.561619 -1.736213 -0.766664 -7.255062 0.000000 0.000000 0.000000 5.870915 11.984645 -34.984098 19.585632 7.606946 47.273396 4.496490 -3.211142 12.809297 0.000000 0.000000 0.000000 -20.393119 8.171457 15.802142 4.795378 0.167244 -29.854629 -28.940554 -40.608711 34.112162 -3.494044 -0.986591 -10.970877 0.000000 0.000000 0.000000 10.060286 -22.652748 15.460952 31.109844 -66.777569 -6.195221 90.992824 -3.305037 8.929001 0.000000 0.000000 0.000000 -40.907404 12.012160 23.905964 0.006177 28.973537 -9.151283 -88.040418 -8.713081 -54.900357 0.000000 0.000000 0.000000 
-0.096668 0.896501 -0.086882 -17.890971 -72.941236 18.128633 23.647674 9.143507 0.045048 0.587129 10.706152 31.953218 -3.289849 -2.040960 -7.630007 0.000000 0.000000 0.000000 9.729072 12.721864 -32.958813 13.310408 9.814256 43.544555 13.001047 3.903597 21.299523 0.000000 0.000000 0.000000 -21.592570 8.616837 13.159878 3.441884 0.736904 -31.735038 -31.932188 -42.179819 37.103007 1.161632 0.985534 -6.134193 0.000000 0.000000 0.000000 10.065531 -21.949962 19.528111 37.721482 -57.925519 -7.262257 87.796929 -2.944681 11.243661 0.000000 0.000000 0.000000 -42.020155 8.543950 23.737698 -9.606358 30.702230 -14.878392 -83.837872 -3.009583 -59.105120 0.000000 0.000000 0.000000 
-0.100749 0.906650 -0.090652 -30.601686 -80.434137 32.429331 22.496284 9.329303 3.021303 -2.409103 10.499564 25.238021 -3.809491 -1.533723 -3.809634 0.000000 0.000000 0.000000 13.215084 12.609185 -30.176696 4.424908 10.875176 37.233349 20.908155 11.631523 26.737040 0.000000 0.000000 0.000000 -24.049934 9.938507 10.178697 5.311978 0.957740 -32.033488 -34.381754 -43.849292 36.288029 5.178359 3.757024 -2.395510 0.000000 0.000000 0.000000 6.650708 -17.435930 23.003717 46.334028 -51.547607 -8.917844 82.676645 -3.040151 11.524039 0.000000 0.000000 0.000000 -39.817011 8.114222 21.482684 -14.298760 27.239284 -14.785004 -76.955264 0.040783 -56.044455 0.000000 0.000000 0.000000 
-0.101297 0.916953 -0.092221 -92.367354 -84.095731 95.050692 21.288538 9.803884 5.043842 -3.410060 10.318636 21.025793 -3.036754 1.961065 -3.164173 0.000000 0.000000 0.000000 19.036808 12.530506 -25.685389 -6.458488 10.652684 29.191236 30.197918 18.421617 34.711120 0.000000 0.000000 0.000000 -25.562183 10.455394 5.845639 5.943883 1.537673 -32.814754 -37.008785 -43.442383 37.680949 6.731660 3.053995 -8.708511 0.000000 0.000000 0.000000 9.351980 -14.828120 25.121622 44.280019 -49.781373 -6.271560 84.233717 3.064644 21.149542 0.000000 0.000000 0.000000 -41.230790 6.326902 19.671943 -18.034520 35.154288 -25.388454 -76.480987 7.993799 -62.953375 0.000000 0.000000 0.000000 
-0.100347 0.924834 -0.092306 -150.131095 -77.736767 152.865487 17.283175 9.161889 7.389309 -2.261156 9.518285 17.274403 -6.357729 1.316220 -3.700717 0.000000 0.000000 0.000000 21.582636 10.012904 -20.493546 -11.042501 8.057980 21.965682 37.421347 21.553050 40.632816 0.000000 0.000000 0.000000 -28.634283 12.480707 0.844431 7.757289 1.441759 -31.007393 -35.675465 -41.817922 33.304105 12.142845 4.215895 -9.667037 0.000000 0.000000 0.000000 7.705144 -14.735537 31.371700 40.541019 -43.005518 -4.550710 84.308226 0.323821 21.031530 0.000000 0.000000 0.000000 -38.464418 5.852707 15.677996 -16.636382 39.405190 -28.477788 -83.206287 12.830718 -72.540744 0.000000 0.000000 0.000000 
-0.098581 0.928870 -0.090848 -156.008124 -72.289792 157.603027 15.989643 9.307765 8.257961 1.722991 7.805187 16.632652 -18.903431 -9.590942 -3.596859 0.000000 0.000000 0.000000 22.495605 7.576027 -16.297438 -12.191230 5.150899 16.261954 46.929411 25.043248 51.017238 0.000000 0.000000 0.000000 -28.409263 12.317969 -2.057927 5.003872 0.704625 -28.902082 -30.220442 -38.854088 31.983366 7.356236 0.139673 -22.769904 0.000000 0.000000 0.000000 12.751322 -12.366549 26.799807 28.084077 -52.587666 0.357794 85.355114 6.336472 30.411431 0.000000 0.000000 0.000000 -40.096195 2.970555 15.125446 -20.297430 45.388054 -37.672558 -87.967297 13.588730 -77.015485 0.000000 0.000000 0.000000 
-0.095479 0.931427 -0.087989 -153.678016 -71.358057 154.263244 16.012910 9.427185 8.366142 2.493333 6.446048 14.922954 -34.510550 -19.504813 0.906305 0.000000 0.000000 0.000000 24.141148 6.127955 -12.357228 -14.237540 3.450595 11.793577 48.538253 27.138736 50.352488 0.000000 0.000000 0.000000 -29.066393 13.144845 -1.256803 3.503810 0.714268 -29.487536 -27.371439 -34.823958 30.910520 7.447296 -1.855387 -26.467850 0.000000 0.000000 0.000000 17.082587 -15.011041 22.031571 -3.104896 -60.912273 17.672823 91.639596 4.737331 32.495007 0.000000 0.000000 0.000000 -44.719960 0.471537 18.659464 -18.887654 54.734112 -51.000273 -101.531489 16.097131 -86.237392 0.000000 0.000000 0.000000 
-0.090808 0.931734 -0.083349 -158.047683 -68.012014 158.547592 14.654986 9.243867 8.185393 3.538296 4.884154 11.989262 -55.951848 -20.037559 12.286231 0.000000 0.000000 0.000000 24.488227 5.044878 -9.725149 -15.290883 2.835745 9.792332 46.437063 30.646683 43.933201 0.000000 0.000000 0.000000 -27.020423 11.346643 -6.240853 -0.367997 -0.084812 -26.792878 -20.826901 -22.025000 28.428998 11.055827 -3.307063 -33.433649 0.000000 0.000000 0.000000 14.038664 -14.097891 14.529801 -38.375668 -57.282507 36.674457 102.945387 -12.676012 21.968480 0.000000 0.000000 0.000000 -46.194953 -2.188976 20.121933 -35.312372 63.688879 -79.858374 -111.379566 28.009979 -89.324295 0.000000 0.000000 0.000000 
-0.084201 0.929992 -0.076692 -144.641727 -75.298723 145.905335 14.508022 7.987585 3.447774 5.132203 2.486433 9.934163 -78.155500 -14.275637 30.160514 0.000000 0.000000 0.000000 25.591795 5.748416 -10.381521 -16.618905 3.277303 9.998470 32.186825 27.547450 27.196395 0.000000 0.000000 0.000000 -27.084808 11.392078 -0.755076 -1.923447 0.211129 -28.839919 -19.861362 -13.572758 29.099934 14.851086 -3.646321 -39.797140 0.000000 0.000000 0.000000 13.506587 -14.701861 5.856914 -63.545427 -49.891271 47.002993 117.129487 -34.883694 -8.189458 0.000000 0.000000 0.000000 -47.577128 -6.550452 20.266097 -66.144826 68.307150 -119.309623 -116.270505 37.263661 -79.448179 0.000000 0.000000 0.000000 
-0.077059 0.929623 -0.069733 -109.616790 -79.988325 110.983897 13.642423 6.609676 1.712471 5.849583 1.458055 9.221083 -64.351120 -25.656010 23.797874 0.000000 0.000000 0.000000 25.354387 7.164796 -13.723344 -15.823309 4.695528 13.866797 25.372670 23.930121 21.227825 0.000000 0.000000 0.000000 -25.285453 10.250834 3.661856 -0.512485 -0.147241 -26.206813 -18.848544 -4.717897 27.078570 17.543383 -2.887599 -45.204045 0.000000 0.000000 0.000000 16.880190 -10.144644 -3.868675 -82.780847 -41.420376 56.248971 133.452850 -42.441100 -33.175946 0.000000 0.000000 0.000000 -49.785633 -9.927554 19.411113 -99.970627 56.603461 -148.159909 -99.859312 31.927123 -34.500361 0.000000 0.000000 0.000000 
-0.070027 0.929329 -0.064603 -113.278364 -79.473424 113.460258 10.242880 4.958676 3.867254 7.615031 0.677589 7.862230 -47.509811 -26.597199 9.998161 0.000000 0.000000 0.000000 25.086043 5.508634 -11.060689 -11.972557 3.773921 14.589218 14.408381 17.979747 9.867549 0.000000 0.000000 0.000000 -23.569420 8.805227 2.579430 -1.519196 -0.061173 -26.895810 -15.914018 4.142832 24.891164 22.562362 -4.645068 -42.453759 0.000000 0.000000 0.000000 12.156317 -5.615491 -4.721915 -79.704639 -36.109159 44.955226 148.490851 -41.702054 -46.034231 0.000000 0.000000 0.000000 -45.640179 -12.387283 17.240084 -114.415226 48.005884 -150.170999 -98.768790 22.746840 -11.869694 0.000000 0.000000 0.000000 
-0.063920 0.929148 -0.061262 -108.620973 -77.583566 108.288326 7.706562 3.951198 3.830662 11.921099 -0.350329 6.663884 -35.139251 -21.363819 2.573324 0.000000 0.000000 0.000000 24.798403 4.404026 -8.616326 -7.137276 3.731932 16.498134 4.699354 17.964642 -0.956457 0.000000 0.000000 0.000000 -21.039632 6.640459 -1.496671 0.378670 -0.801693 -21.316120 -14.396857 6.099067 19.331494 25.376019 -6.071076 -39.360025 0.000000 0.000000 0.000000 2.504545 -3.666217 -0.163657 -69.703015 -35.441259 30.651280 162.280987 -42.765745 -65.760580 0.000000 0.000000 0.000000 -37.088818 -11.728213 14.844820 -120.513380 46.473779 -148.232614 -108.886964 20.541919 -7.407955 0.000000 0.000000 0.000000 
-0.059304 0.931037 -0.060216 -140.027535 -75.048127 136.419701 3.741991 3.961263 9.343221 9.304533 -0.020317 5.004234 -20.507247 -8.699848 -3.559103 0.000000 0.000000 0.000000 20.122022 1.564790 -4.776506 -2.627560 7.929413 26.103825 12.521810 0.819373 16.114752 0.000000 0.000000 0.000000 -17.202888 5.102622 -2.400822 -4.329153 -0.120479 -26.406681 -7.281501 9.926197 20.689347 25.260984 -9.540297 -27.779393 0.000000 0.000000 0.000000 -1.881751 -0.413678 0.772017 -65.735184 -38.916361 29.583982 163.508404 -44.076685 -66.900341 0.000000 0.000000 0.000000 -33.706749 -8.379848 15.346368 -109.439344 51.543208 -134.588364 -123.714185 12.322709 -10.062963 0.000000 0.000000 0.000000 
-0.058191 0.931932 -0.061500 -147.297416 -76.524692 143.601401 0.411018 3.067207 9.317900 6.795202 -0.050808 2.627108 -8.421393 1.878353 -0.194798 0.000000 0.000000 0.000000 16.804269 0.852259 -4.931619 4.018838 8.638506 28.880818 -4.289181 -19.124936 30.167453 0.000000 0.000000 0.000000 -16.870670 4.919611 -1.522546 -3.748820 -0.301297 -27.244646 -9.736328 12.672043 19.996741 27.699445 -11.910592 -26.175121 0.000000 0.000000 0.000000 -2.720399 -6.414570 4.821717 -47.794102 -50.308860 24.895649 149.494780 -46.802207 -60.152363 0.000000 0.000000 0.000000 -23.559334 -6.644429 10.504001 -76.319333 54.128634 -78.767664 -127.747532 -13.358391 13.318450 0.000000 0.000000 0.000000 
-0.058581 0.934784 -0.065416 -146.369504 -78.134155 142.869895 -2.172969 3.100307 11.024197 7.977492 -0.849370 -0.842334 -2.231720 9.058924 1.016285 0.000000 0.000000 0.000000 15.817875 0.597505 -4.443034 6.658610 7.693060 27.306171 -11.116830 -21.463803 31.799834 0.000000 0.000000 0.000000 -18.669975 5.643549 -2.362530 -2.439806 -0.542064 -24.976438 -9.438319 8.034556 20.942089 26.271185 -11.515946 -24.434370 0.000000 0.000000 0.000000 0.553068 -7.996676 3.950144 -43.900291 -62.134114 33.590229 132.579936 -43.519934 -37.687358 0.000000 0.000000 0.000000 -26.486186 -5.983731 12.381007 -62.104956 40.122328 -50.551861 -121.417073 -48.901653 48.717181 0.000000 0.000000 0.000000 
-0.059513 0.936091 -0.070472 -154.256533 -79.243038 152.428549 -4.783103 2.376280 9.795941 10.166445 -1.260235 -2.816332 -1.804195 6.571945 5.340420 0.000000 0.000000 0.000000 14.287742 0.293900 -3.927315 7.183695 6.313783 23.400193 -18.961646 -21.654314 36.920965 0.000000 0.000000 0.000000 -21.089834 7.099650 -0.491241 -1.956150 0.106631 -28.835522 -9.560915 1.650931 22.456126 20.711353 -9.905519 -25.088234 0.000000 0.000000 0.000000 5.081986 -11.544566 4.099129 -25.919258 -71.576521 30.872584 115.450660 -29.119698 -6.921503 0.000000 0.000000 0.000000 -32.932505 -4.137950 16.663297 -55.970947 29.987453 -40.271032 -122.368214 -69.091620 66.436557 0.000000 0.000000 0.000000 
-0.059083 0.940011 -0.074662 -157.045166 -79.421674 156.402693 -5.126493 1.691681 7.839295 9.862827 -1.205726 -2.363029 0.168124 6.557073 9.033200 0.000000 0.000000 0.000000 13.452100 0.126890 -3.084625 6.744235 5.162116 19.795283 -18.376888 -19.609835 42.726197 0.000000 0.000000 0.000000 -20.015925 6.512413 -0.558624 -1.710244 0.294317 -29.201053 -8.606927 -1.191334 23.522572 15.795521 -9.300038 -24.540359 0.000000 0.000000 0.000000 10.116519 -14.899272 3.944496 1.611596 -72.144184 14.227039 109.092934 -11.671062 15.684049 0.000000 0.000000 0.000000 -35.290937 -2.317109 18.810505 -58.012417 23.066132 -40.284464 -101.086933 -71.789153 49.718095 0.000000 0.000000 0.000000 
-0.057568 0.943301 -0.077659 -160.735096 -78.437079 161.371275 -6.079903 1.612491 7.803588 10.085865 -1.203842 -5.324577 4.011682 9.044564 13.099524 0.000000 0.000000 0.000000 11.933143 -0.037153 -2.604903 5.971346 4.616151 17.857399 -14.367951 -15.576823 54.306485 0.000000 0.000000 0.000000 -20.474189 6.907255 -0.095296 -1.493471 1.166559 -32.452803 -7.579289 -4.223328 25.250059 14.387548 -8.175101 -25.503407 0.000000 0.000000 0.000000 14.583998 -16.735361 3.630349 18.726649 -71.393939 5.624252 103.767415 6.159560 34.012358 0.000000 0.000000 0.000000 -38.913356 -1.047341 21.032029 -53.435669 21.937516 -37.284201 -77.519271 -71.663401 24.787260 0.000000 0.000000 0.000000 
-0.054596 0.946199 -0.079105 -166.173763 -75.884919 167.671501 -6.792679 1.149756 6.349133 10.043444 -1.201238 -5.099712 6.208543 9.715257 16.961904 0.000000 0.000000 0.000000 11.091529 -0.050406 -2.985529 5.451101 4.697181 17.607979 -15.883044 -11.288133 61.915033 0.000000 0.000000 0.000000 -19.657576 6.640789 -0.536723 -1.574143 1.243117 -32.696012 -7.343729 -5.194364 25.706535 14.586853 -7.274829 -27.582369 0.000000 0.000000 0.000000 18.487540 -18.382996 3.754185 29.295534 -65.264174 1.352075 96.270728 17.437053 41.352107 0.000000 0.000000 0.000000 -37.199945 0.551946 20.644056 -49.131590 25.821536 -37.209573 -71.843339 -62.838452 11.987908 0.000000 0.000000 0.000000 
-0.050624 0.948360 -0.079648 -168.096854 -74.877294 170.564468 -6.776463 0.652578 4.438700 8.532605 -1.039265 -4.186011 8.912772 12.056647 18.663485 0.000000 0.000000 0.000000 10.502372 -0.061921 -2.875172 5.025983 4.132392 15.461801 -17.209916 -10.318594 61.809808 0.000000 0.000000 0.000000 -19.186198 6.369785 -1.274492 -1.046398 0.952864 -31.516014 -6.476002 -4.615974 25.078232 12.280878 -7.135211 -28.660463 0.000000 0.000000 0.000000 19.955930 -20.344422 4.721589 32.674616 -61.909305 0.231818 91.445824 22.163314 41.870495 0.000000 0.000000 0.000000 -37.022936 1.688965 20.835566 -42.285504 29.413061 -33.930471 -57.796661 -57.168425 0.750739 0.000000 0.000000 0.000000 
-0.045919 0.949773 -0.079509 -169.947354 -73.844729 172.662709 -5.538095 0.625052 3.534798 6.353429 -0.632943 -3.234557 7.054075 10.142223 17.667345 0.000000 0.000000 0.000000 9.541888 -0.068406 -2.557299 4.223352 3.837812 14.631983 -16.802178 -12.915734 53.619632 0.000000 0.000000 0.000000 -18.101353 5.963116 -0.141940 -1.709648 0.693327 -30.878760 -5.632339 -5.209871 24.692336 11.755136 -6.800421 -29.027375 0.000000 0.000000 0.000000 20.510823 -19.555044 4.584588 33.017267 -61.394725 0.646132 86.085879 21.892592 37.263902 0.000000 0.000000 0.000000 -34.446555 4.651106 20.381456 -36.744104 33.084254 -33.483336 -64.610550 -46.567819 -3.064556 0.000000 0.000000 0.000000 
-0.040989 0.952031 -0.079551 -170.781150 -73.343793 173.607654 -4.446544 0.455386 1.339153 5.318456 -0.238000 -1.353150 6.525386 6.479994 22.151512 0.000000 0.000000 0.000000 9.578161 -0.025619 -0.824699 2.710444 3.132092 12.737396 -13.423816 -14.777843 43.760353 0.000000 0.000000 0.000000 -17.433202 5.619818 -0.196582 -0.151066 -0.057713 -27.647098 -4.950820 -3.975869 22.538562 9.889007 -7.215573 -23.741750 0.000000 0.000000 0.000000 16.868788 -21.025781 7.284145 33.247948 -59.466954 -1.456619 82.209072 17.076703 29.630531 0.000000 0.000000 0.000000 -30.932478 7.575189 19.429177 -38.289155 35.344051 -37.780795 -65.517505 -36.513858 -4.569564 0.000000 0.000000 0.000000 
-0.035181 0.955074 -0.079719 -171.251607 -73.143734 174.634578 -3.501458 0.418663 -0.969597 4.486370 0.245120 0.697273 4.583601 3.403280 23.891716 0.000000 0.000000 0.000000 9.155820 -0.049919 -1.809015 1.339363 2.972693 12.743730 -9.651257 -14.880497 37.090359 0.000000 0.000000 0.000000 -16.171881 5.166967 1.762922 -0.355500 -0.174133 -27.386634 -4.397044 -2.425791 22.136211 9.680716 -7.489022 -23.891300 0.000000 0.000000 0.000000 15.841395 -20.800560 7.133226 29.260497 -61.309547 -0.477827 81.155582 14.313781 25.953510 0.000000 0.000000 0.000000 -29.340951 8.728802 18.877460 -37.124239 37.641995 -39.075732 -68.451964 -27.946550 -8.573631 0.000000 0.000000 0.000000 
-0.027958 0.958182 -0.079853 -170.920622 -73.090975 174.287291 -2.688280 0.573296 -3.392679 4.266635 0.750233 2.954426 3.517031 0.571928 29.255199 0.000000 0.000000 0.000000 9.027901 -0.018074 -0.698962 0.539355 2.502177 11.243099 -8.163516 -13.787619 29.553660 0.000000 0.000000 0.000000 -14.611846 4.502196 3.142973 -0.491113 -0.557095 -25.551946 -3.286926 -0.211658 20.225743 10.252689 -7.722851 -20.264099 0.000000 0.000000 0.000000 14.514335 -21.899706 7.815856 27.997519 -61.814102 -1.064588 80.510385 12.376138 22.869242 0.000000 0.000000 0.000000 -25.336838 11.606428 17.187018 -40.516091 39.407425 -43.509479 -67.115243 -21.322735 -7.445793 0.000000 0.000000 0.000000 
-0.019483 0.961608 -0.079386 -170.841379 -73.097598 174.380951 -2.796439 0.590875 -5.127243 4.473704 0.974548 4.218134 4.688827 0.589863 32.116979 0.000000 0.000000 0.000000 9.552618 -0.011419 -0.413577 -0.981370 2.242818 10.764495 -7.869849 -13.437544 28.214811 0.000000 0.000000 0.000000 -14.156156 4.686408 5.704879 0.287738 -0.549478 -25.610185 -2.738006 1.148284 20.262301 12.209191 -8.259107 -20.100329 0.000000 0.000000 0.000000 14.360209 -22.214482 7.560145 28.736923 -60.629229 -1.774170 83.051995 12.044232 23.681633 0.000000 0.000000 0.000000 -23.808743 11.417061 16.259708 -42.346107 40.695134 -46.006902 -68.872522 -16.496640 -8.628569 0.000000 0.000000 0.000000 
-0.010535 0.963225 -0.078213 -169.088604 -74.275625 173.851407 -2.440500 1.055113 -8.819630 4.999583 1.444123 6.824829 3.145562 -0.892531 33.496702 0.000000 0.000000 0.000000 9.501810 -0.087639 -1.786680 -1.062163 1.861780 8.999786 -7.320465 -13.160536 26.065872 0.000000 0.000000 0.000000 -13.240351 4.578495 7.766045 1.801683 -0.189851 -27.424275 -1.659681 -0.068252 21.293461 11.198792 -8.078777 -19.945971 0.000000 0.000000 0.000000 10.138676 -20.780297 9.496110 29.194363 -59.215267 -3.757434 87.611133 9.367809 23.291906 0.000000 0.000000 0.000000 -24.151793 12.855984 16.608980 -46.884206 41.413325 -52.036585 -68.984507 -10.931717 -10.099526 0.000000 0.000000 0.000000 
-0.001596 0.963572 -0.076254 -165.790932 -73.581040 171.380807 -1.991605 1.443961 -9.742957 3.945366 1.322261 5.369721 10.874185 4.418958 36.011381 0.000000 0.000000 0.000000 10.508938 -0.072428 -2.648361 -0.029056 2.099191 9.370131 -4.311342 -10.989461 20.860657 0.000000 0.000000 0.000000 -12.389964 4.490021 9.206735 3.952843 -0.295741 -25.068005 -1.926327 3.717587 20.069166 8.335930 -8.274532 -21.084008 0.000000 0.000000 0.000000 12.025526 -21.799126 7.911417 21.076538 -59.843031 -0.115973 93.437141 6.628611 23.811280 0.000000 0.000000 0.000000 -24.413965 10.319921 16.004474 -46.820686 42.988324 -51.192618 -69.923757 -9.655563 -11.481361 0.000000 0.000000 0.000000 
0.006836 0.965449 -0.074638 -163.721365 -73.952555 169.299119 -2.303379 1.793377 -11.910056 2.809256 1.982154 6.464903 19.627237 11.476671 42.341338 0.000000 0.000000 0.000000 10.028823 -0.102057 -2.542953 0.633115 2.348028 10.362608 -1.628880 -9.540873 19.312082 0.000000 0.000000 0.000000 -9.258206 3.461325 11.124589 1.795296 -0.230969 -27.531325 0.748565 4.431701 23.946200 4.945785 -7.250993 -16.987967 0.000000 0.000000 0.000000 10.147427 -17.673791 6.840894 14.470484 -63.789699 2.835798 100.574354 0.856138 20.979191 0.000000 0.000000 0.000000 -18.434524 14.565896 12.685849 -41.446062 46.233659 -48.845795 -73.879408 5.033015 -20.934038 0.000000 0.000000 0.000000 
