HIERARCHY
ROOT Hips
{
	OFFSET -0.001795 -0.223333 0.028219
	CHANNELS 6 Xposition Yposition Zposition Zrotation Yrotation Xrotation 
	JOINT LeftUpLeg
	{
		OFFSET 0.069520 -0.091406 -0.006815
		CHANNELS 3 Zrotation Yrotation Xrotation
		JOINT LeftLeg
		{
			OFFSET 0.034277 -0.375199 -0.004496
			CHANNELS 3 Zrotation Yrotation Xrotation
			JOINT LeftFoot
			{
				OFFSET -0.013596 -0.397961 -0.043693
				CHANNELS 3 Zrotation Yrotation Xrotation
				JOINT LeftToe
				{
					OFFSET 0.026358 -0.055791 0.119288
					CHANNELS 3 Zrotation Yrotation Xrotation
					End Site
					{
						OFFSET 0.000000 0.000000 0.000000
					}
				}
			}
		}
	}
	JOINT RightUpLeg
	{
		OFFSET -0.067670 -0.090522 -0.004320
		CHANNELS 3 Zrotation Yrotation Xrotation
		JOINT RightLeg
		{
			OFFSET -0.038290 -0.382569 -0.008850
			CHANNELS 3 Zrotation Yrotation Xrotation
			JOINT RightFoot
			{
				OFFSET 0.015774 -0.398415 -0.042312
				CHANNELS 3 Zrotation Yrotation Xrotation
				JOINT RightToe
				{
					OFFSET -0.025372 -0.048144 0.123348
					CHANNELS 3 Zrotation Yrotation Xrotation
					End Site
					{
						OFFSET 0.000000 0.000000 0.000000
					}
				}
			}
		}
	}
	JOINT Spine
	{
		OFFSET -0.002533 0.108963 -0.026696
		CHANNELS 3 Zrotation Yrotation Xrotation
		JOINT Spine1
		{
			OFFSET 0.005487 0.135180 0.001092
			CHANNELS 3 Zrotation Yrotation Xrotation
			JOINT Spine2
			{
				OFFSET 0.001457 0.052922 0.025425
				CHANNELS 3 Zrotation Yrotation Xrotation
				JOINT Neck
				{
					OFFSET -0.002778 0.213870 -0.042857
					CHANNELS 3 Zrotation Yrotation Xrotation
					JOINT Head
					{
						OFFSET 0.005152 0.064970 0.051349
						CHANNELS 3 Zrotation Yrotation Xrotation
						End Site
						{
							OFFSET 0.000000 0.000000 0.000000
						}
					}
				}
				JOINT LeftShoulder
				{
					OFFSET 0.078845 0.121749 -0.034090
					CHANNELS 3 Zrotation Yrotation Xrotation
					JOINT LeftArm
					{
						OFFSET 0.090977 0.030469 -0.008868
						CHANNELS 3 Zrotation Yrotation Xrotation
						JOINT LeftForeArm
						{
							OFFSET 0.259612 -0.012772 -0.027456
							CHANNELS 3 Zrotation Yrotation Xrotation
							JOINT LeftHand
							{
								OFFSET 0.249234 0.008986 -0.001171
								CHANNELS 3 Zrotation Yrotation Xrotation
								End Site
								{
									OFFSET 0.000000 0.000000 0.000000
								}
							}
						}
					}
				}
				JOINT RightShoulder
				{
					OFFSET -0.081759 0.118833 -0.038615
					CHANNELS 3 Zrotation Yrotation Xrotation
					JOINT RightArm
					{
						OFFSET -0.096012 0.032551 -0.009143
						CHANNELS 3 Zrotation Yrotation Xrotation
						JOINT RightForeArm
						{
							OFFSET -0.253742 -0.013329 -0.021401
							CHANNELS 3 Zrotation Yrotation Xrotation
							JOINT RightHand
							{
								OFFSET -0.255298 0.007772 -0.005559
								CHANNELS 3 Zrotation Yrotation Xrotation
								End Site
								{
									OFFSET 0.000000 0.000000 0.000000
								}
							}
						}
					}
				}
			}
		}
	}
}
MOTION
Frames: 60
Frame Time: 0.050000
0.000000 0.550702 0.000000 -2.558642 -18.154407 -5.704920 42.636117 10.779710 -17.456740 -10.490125 13.490723 75.325915 10.943774 16.529109 -65.331227 0.000000 0.000000 0.000000 -44.521843 -3.824756 -37.605992 38.574287 -20.224678 62.452075 -7.368179 -26.215287 -45.629289 0.000000 0.000000 0.000000 5.858683 -1.205678 23.193028 -3.541496 1.184749 -31.422509 -1.791044 13.146528 23.594999 13.750699 -6.771544 -23.247315 0.000000 0.000000 0.000000 -12.493333 -19.644996 8.097287 -43.716163 -37.011355 6.131483 139.990957 -36.632624 -75.521555 0.000000 0.000000 0.000000 11.025622 19.813859 8.571068 68.404325 52.444119 26.379609 172.485704 65.518491 -178.813773 0.000000 0.000000 0.000000 
-0.000907 0.556266 0.000392 -2.806275 -18.586153 -7.401083 40.350988 10.527746 -18.611254 -5.740148 9.399914 78.684676 10.667417 16.726790 -61.124314 0.000000 0.000000 0.000000 -45.056593 -4.421976 -39.908997 38.662442 -21.791519 66.161902 -7.965952 -25.511347 -34.280985 0.000000 0.000000 0.000000 7.322527 -1.465988 25.114189 -6.995366 1.892057 -34.093043 0.195910 9.609159 25.809424 14.572636 -8.605157 -21.050938 0.000000 0.000000 0.000000 -12.832008 -20.663088 9.264261 -41.591352 -41.596957 7.263330 136.837497 -37.083158 -69.798975 0.000000 0.000000 0.000000 11.685837 23.321787 9.592246 64.277090 51.501772 22.723025 179.072757 62.717626 -169.942088 0.000000 0.000000 0.000000 
-0.001489 0.557827 0.001168 -1.836819 -17.073125 -9.040253 40.086538 10.385174 -19.542529 -6.436102 9.546007 79.939572 10.680383 15.280026 -58.570460 0.000000 0.000000 0.000000 -43.276507 -4.528413 -39.454426 33.274338 -19.313571 71.401273 -8.100562 -25.151446 -33.914583 0.000000 0.000000 0.000000 7.570313 -1.526067 24.414294 -3.962317 1.138037 -29.377176 -3.044542 8.928230 21.682931 12.857314 -8.939164 -13.637052 0.000000 0.000000 0.000000 -17.601052 -21.137947 10.081803 -35.970098 -40.436529 5.603968 135.683298 -37.346374 -70.471673 0.000000 0.000000 0.000000 14.858791 25.606117 11.289820 59.339582 54.658758 22.734511 -170.829634 70.848726 -158.026902 0.000000 0.000000 0.000000 
-0.001661 0.559709 0.001799 -1.387845 -17.424264 -9.776926 40.365332 10.710166 -19.833815 -6.664617 9.938219 81.062797 10.625267 14.546358 -55.573444 0.000000 0.000000 0.000000 -41.513036 -4.333981 -40.739318 30.027896 -17.327592 74.894546 -8.233419 -24.821141 -31.757714 0.000000 0.000000 0.000000 8.439611 -1.642264 24.609222 -6.027064 1.644946 -29.872242 -1.047220 7.438064 22.730469 9.207121 -6.551611 -12.419429 0.000000 0.000000 0.000000 -17.329729 -20.883518 10.309090 -35.271272 -40.472869 5.381029 130.811298 -34.968175 -60.212490 0.000000 0.000000 0.000000 11.306889 26.462110 10.592818 60.582394 56.988627 24.683176 -149.512413 74.082591 -132.668200 0.000000 0.000000 0.000000 
-0.001709 0.559405 0.003095 -0.371678 -16.520913 -10.785854 40.582980 10.780333 -20.409008 -8.008909 11.008581 81.949775 10.571676 13.268696 -53.233250 0.000000 0.000000 0.000000 -42.164818 -4.811149 -40.798763 28.278868 -16.681977 77.256721 -8.297403 -24.031688 -29.210577 0.000000 0.000000 0.000000 8.002853 -1.584437 24.699567 -5.335758 1.483756 -27.039072 -1.289334 7.577356 20.864313 8.805389 -6.329856 -10.861312 0.000000 0.000000 0.000000 -16.867852 -21.027212 10.011188 -33.636441 -38.110926 4.523039 131.107213 -36.152037 -63.585779 0.000000 0.000000 0.000000 11.857987 28.503034 11.712085 54.725385 59.542610 23.418769 -110.828484 73.377098 -88.154433 0.000000 0.000000 0.000000 
-0.001502 0.557682 0.004025 0.157573 -15.929933 -11.563004 41.281622 11.438259 -21.887427 -8.721779 11.570530 84.076691 10.318399 11.462638 -48.963090 0.000000 0.000000 0.000000 -42.019172 -4.968115 -40.513771 26.634681 -15.628721 79.001598 -8.293202 -23.614204 -29.000624 0.000000 0.000000 0.000000 7.344694 -1.492393 25.332842 -4.008243 1.198202 -28.300943 -0.213513 9.166344 22.412319 7.557430 -4.632551 -13.887417 0.000000 0.000000 0.000000 -15.853145 -20.681860 9.326653 -34.185009 -37.805748 4.458507 132.785906 -36.411197 -66.593708 0.000000 0.000000 0.000000 10.147192 30.115830 12.243291 48.210474 61.177451 20.863466 -83.944746 66.204911 -55.042322 0.000000 0.000000 0.000000 
-0.001077 0.556776 0.004222 0.956432 -16.491532 -12.994114 40.857032 11.684555 -22.191425 -7.850951 11.096977 86.248531 9.903842 10.399735 -44.330589 0.000000 0.000000 0.000000 -41.720569 -4.925530 -41.484121 25.054695 -14.341018 81.576478 -8.227967 -22.529616 -26.016989 0.000000 0.000000 0.000000 7.483329 -1.470214 26.956389 -4.450277 1.327916 -29.232033 0.280638 9.551400 23.495863 7.591952 -4.593644 -14.471467 0.000000 0.000000 0.000000 -15.546406 -20.523785 9.179105 -32.277225 -38.119951 4.061608 130.963919 -35.638085 -63.645637 0.000000 0.000000 0.000000 7.693746 30.970005 11.842050 45.917100 64.081178 21.159258 -64.868711 55.141196 -32.412260 0.000000 0.000000 0.000000 
-0.001250 0.557399 0.004017 0.666639 -16.265599 -13.656838 40.162144 11.881375 -23.583046 -6.198689 9.213687 88.172370 9.400641 9.550789 -40.257668 0.000000 0.000000 0.000000 -41.199032 -4.789116 -40.666421 24.807097 -13.973694 81.791510 -8.256214 -22.512002 -25.946274 0.000000 0.000000 0.000000 7.689439 -1.529176 28.030983 -3.740923 1.143193 -27.976263 0.103075 9.171610 21.958853 5.937065 -3.382824 -13.658869 0.000000 0.000000 0.000000 -16.069380 -19.898992 8.894705 -32.361034 -38.539914 4.329590 132.782454 -35.837335 -66.259465 0.000000 0.000000 0.000000 6.867399 30.994275 11.604932 48.298996 65.358202 23.504919 -58.231239 51.432147 -26.362887 0.000000 0.000000 0.000000 
-0.002244 0.559203 0.003862 0.767653 -18.391936 -14.056178 40.028003 12.187032 -22.557514 -4.650521 8.512990 88.735641 9.169870 9.721670 -37.396335 0.000000 0.000000 0.000000 -39.855060 -3.924709 -41.500722 24.847930 -13.012330 81.715106 -8.187146 -22.485013 -27.038126 0.000000 0.000000 0.000000 7.266492 -1.287985 28.552130 -3.649905 1.035779 -27.470183 0.532734 9.232180 21.530593 4.396246 -2.520441 -11.644275 0.000000 0.000000 0.000000 -15.883318 -20.635106 9.441923 -30.703847 -37.851922 3.800889 132.397254 -32.608540 -60.333037 0.000000 0.000000 0.000000 6.762763 31.482405 11.583465 49.211383 63.354385 22.767467 -58.367349 55.452824 -29.100090 0.000000 0.000000 0.000000 
-0.004031 0.562917 0.003951 0.446226 -19.403187 -13.360269 39.604713 12.348452 -22.697856 -3.546735 7.812249 88.524150 9.077890 10.284934 -35.742756 0.000000 0.000000 0.000000 -38.726088 -3.424562 -42.227736 25.102812 -12.753915 81.099895 -8.252054 -23.095474 -27.346754 0.000000 0.000000 0.000000 7.337341 -1.245526 28.781722 -3.248396 0.922989 -27.984538 -0.419852 7.762074 20.835135 3.593926 -2.305147 -9.711588 0.000000 0.000000 0.000000 -16.674978 -20.552237 9.950288 -29.144689 -36.137838 3.036992 131.914031 -31.604874 -57.433268 0.000000 0.000000 0.000000 8.819259 30.160202 11.343779 52.274118 61.114312 22.916050 -67.279825 65.761719 -42.585163 0.000000 0.000000 0.000000 
-0.006623 0.567005 0.004444 -0.253477 -20.364382 -12.745586 39.156905 12.568386 -23.100886 -1.817045 6.303390 88.623739 8.820378 10.516287 -33.003478 0.000000 0.000000 0.000000 -37.816705 -2.892224 -42.125573 26.234123 -13.109490 79.579160 -8.282563 -23.777903 -28.472042 0.000000 0.000000 0.000000 7.696461 -1.272369 28.556984 -3.340339 0.947673 -28.825264 -0.437452 6.881283 21.491227 3.302461 -2.332282 -8.842019 0.000000 0.000000 0.000000 -18.141493 -20.308608 10.504326 -27.352500 -36.396754 2.589409 132.853080 -31.419170 -57.453696 0.000000 0.000000 0.000000 10.461442 28.782706 10.925784 52.048376 58.333885 20.840347 -94.950134 73.451164 -73.786910 0.000000 0.000000 0.000000 
-0.009500 0.567780 0.005369 -0.319684 -21.052497 -12.451602 37.415506 12.181575 -23.573756 0.569759 4.255408 88.954990 8.742678 11.341824 -31.084743 0.000000 0.000000 0.000000 -38.075923 -2.741867 -42.561630 27.406662 -13.945876 78.963809 -8.247098 -23.943478 -28.459168 0.000000 0.000000 0.000000 7.727785 -1.232650 29.543909 -3.363376 0.958499 -29.373533 -0.908836 6.016886 21.064507 3.313392 -2.612828 -7.137506 0.000000 0.000000 0.000000 -18.491068 -21.169428 11.282339 -26.296612 -35.507865 2.188308 133.452451 -29.729159 -54.850946 0.000000 0.000000 0.000000 11.000412 28.104568 10.564966 51.727382 58.633232 20.684404 -117.963301 72.593366 -96.871407 0.000000 0.000000 0.000000 
-0.012190 0.567630 0.006438 -0.608539 -21.033979 -12.160769 36.193144 11.703426 -23.897468 2.213283 2.525324 88.832255 8.781697 12.017805 -30.889226 0.000000 0.000000 0.000000 -37.868202 -2.760841 -43.082966 27.691216 -14.441506 79.425804 -8.312147 -24.238278 -27.292716 0.000000 0.000000 0.000000 8.220575 -1.345768 30.480842 -3.076662 0.919182 -29.678481 -1.706898 5.496931 20.997467 3.816897 -3.129666 -6.835145 0.000000 0.000000 0.000000 -18.838063 -21.157179 11.452333 -26.003365 -36.953071 2.393381 135.580579 -31.663343 -60.258290 0.000000 0.000000 0.000000 11.069797 27.553413 10.290446 51.661299 59.818970 21.251540 -132.049207 69.608616 -109.944725 0.000000 0.000000 0.000000 
-0.014421 0.566168 0.007388 -0.454115 -20.715897 -12.228173 34.518441 10.944824 -24.074035 3.826494 0.870778 88.712527 8.879801 12.750680 -31.220039 0.000000 0.000000 0.000000 -38.351763 -2.948498 -43.125001 27.930035 -14.961974 79.820365 -8.312238 -24.261164 -26.980488 0.000000 0.000000 0.000000 8.679229 -1.462012 31.513763 -4.265213 1.187909 -28.877686 -1.373595 4.132620 20.126464 3.445673 -3.030167 -5.211895 0.000000 0.000000 0.000000 -18.483194 -22.010581 12.030808 -25.683443 -37.547557 2.523936 137.414779 -30.989905 -60.699580 0.000000 0.000000 0.000000 10.856865 27.820908 10.197087 51.086559 60.813045 21.407198 -135.486291 65.438980 -110.517602 0.000000 0.000000 0.000000 
-0.015629 0.562741 0.008047 -0.532743 -20.605953 -11.895714 33.744955 10.578173 -24.122028 4.782179 -0.103051 88.582223 9.104769 13.476134 -33.036808 0.000000 0.000000 0.000000 -38.611024 -3.094770 -43.698614 28.129974 -15.494543 80.331214 -8.317121 -24.426560 -26.968530 0.000000 0.000000 0.000000 9.077423 -1.567549 32.925292 -4.108181 1.182234 -29.462829 -1.096253 4.132771 20.186782 3.958393 -3.492978 -5.008398 0.000000 0.000000 0.000000 -18.174277 -22.703930 12.271880 -23.699147 -37.842673 2.198562 136.260786 -30.863753 -59.408327 0.000000 0.000000 0.000000 11.362570 28.254566 10.495077 48.871462 62.131400 20.936284 -131.019869 62.756509 -101.929189 0.000000 0.000000 0.000000 
-0.015810 0.561065 0.008349 -0.423101 -19.982549 -11.645322 32.869294 10.714498 -26.205054 5.431245 -1.238399 89.939971 8.773230 12.844214 -29.735065 0.000000 0.000000 0.000000 -39.053699 -3.436259 -44.242486 27.853117 -15.848668 81.113629 -8.398031 -24.435527 -25.478698 0.000000 0.000000 0.000000 9.763717 -1.801423 34.572151 -4.168056 1.225604 -29.410856 -0.666571 3.881155 19.516645 4.046753 -3.495429 -5.456816 0.000000 0.000000 0.000000 -16.927658 -23.481018 12.276348 -21.966295 -36.846377 1.792730 133.450324 -28.612890 -52.606979 0.000000 0.000000 0.000000 10.830327 28.989713 10.758115 47.342896 63.064010 20.668142 -124.827500 59.887812 -91.183993 0.000000 0.000000 0.000000 
-0.014977 0.558384 0.008672 0.163450 -19.144659 -12.076092 32.241616 11.113666 -28.855088 5.346220 -1.896301 92.376133 7.925413 11.221054 -23.643802 0.000000 0.000000 0.000000 -40.464223 -4.088864 -44.591597 27.615254 -16.453666 82.253672 -8.407553 -23.678166 -22.757223 0.000000 0.000000 0.000000 10.418165 -2.052310 36.355366 -3.234204 1.023691 -28.936181 -0.557919 4.604462 18.559438 4.505242 -3.637437 -6.467776 0.000000 0.000000 0.000000 -14.640671 -23.964845 11.567251 -20.286572 -35.709344 1.486869 128.699623 -27.393621 -47.021699 0.000000 0.000000 0.000000 10.633167 29.012234 10.944032 46.383724 64.320271 21.063163 -112.798797 58.017049 -75.373614 0.000000 0.000000 0.000000 
-0.013399 0.558819 0.009456 0.148234 -19.095766 -11.715520 31.909965 11.624700 -30.887865 5.499535 -2.356580 93.860616 7.213055 10.368393 -18.734329 0.000000 0.000000 0.000000 -40.388444 -4.046847 -44.522052 27.386412 -16.156293 81.932368 -8.417201 -23.814117 -23.481232 0.000000 0.000000 0.000000 11.429547 -2.341496 37.064269 -2.641906 0.839720 -27.175275 0.163555 6.281789 17.229654 4.299681 -3.114684 -7.361143 0.000000 0.000000 0.000000 -13.514828 -24.843345 11.308115 -18.997912 -34.565332 1.281207 126.280030 -25.742373 -43.390865 0.000000 0.000000 0.000000 9.905684 29.216403 11.177483 44.379096 65.454073 20.848196 -103.424086 52.444057 -59.551241 0.000000 0.000000 0.000000 
-0.011719 0.562326 0.010148 1.258587 -18.825153 -10.892243 31.278042 11.701980 -32.330058 5.543406 -2.311279 92.594158 5.226239 5.572942 -15.460599 0.000000 0.000000 0.000000 -40.914098 -4.328596 -45.421395 26.122523 -15.261241 82.075538 -8.450290 -23.659718 -22.955237 0.000000 0.000000 0.000000 12.867966 -2.786105 37.827865 -3.649028 1.108622 -27.038945 0.896303 6.425781 17.388608 4.254053 -2.773470 -9.702383 0.000000 0.000000 0.000000 -12.149543 -24.025686 10.575155 -19.226413 -34.316246 1.318573 124.307816 -25.376997 -41.413260 0.000000 0.000000 0.000000 8.408640 29.275488 10.956831 45.142849 67.890444 22.624971 -94.127664 47.702048 -46.824972 0.000000 0.000000 0.000000 
-0.010683 0.571781 0.010518 1.621856 -18.348064 -10.443908 30.712066 11.223899 -32.186395 4.295816 -0.595552 89.502910 6.539400 10.394924 -12.891314 0.000000 0.000000 0.000000 -39.405372 -4.084219 -45.500444 23.939420 -13.085159 82.369414 -8.652769 -23.991450 -21.280761 0.000000 0.000000 0.000000 13.843645 -3.140616 38.054542 -2.925104 0.906520 -25.525063 1.416790 8.163608 16.772795 4.354727 -2.590803 -9.777708 0.000000 0.000000 0.000000 -11.323502 -23.930765 9.987240 -21.014657 -35.812175 1.943272 124.943674 -24.775596 -41.885855 0.000000 0.000000 0.000000 7.044936 28.752560 10.749055 44.471900 69.848908 23.663638 -89.416274 42.055545 -37.477061 0.000000 0.000000 0.000000 
-0.010385 0.588194 0.010308 1.759603 -17.346901 -9.189778 29.622452 10.308143 -32.052453 3.142422 0.672290 86.279061 7.224773 11.982359 -14.348408 0.000000 0.000000 0.000000 -39.283830 -4.264422 -44.747037 23.806680 -12.832814 79.889769 -8.959106 -24.496006 -18.678996 0.000000 0.000000 0.000000 15.646367 -3.803916 37.531017 -3.132879 0.983972 -24.596943 1.986327 8.147851 16.623488 3.195401 -1.449010 -11.351334 0.000000 0.000000 0.000000 -10.677359 -23.455257 9.601118 -22.823081 -37.720736 2.633635 125.736561 -23.350101 -40.147155 0.000000 0.000000 0.000000 4.691286 28.323723 10.165694 45.461520 73.074836 26.299086 -82.519973 35.392356 -27.535226 0.000000 0.000000 0.000000 
-0.010674 0.610423 0.009614 1.331162 -16.630846 -7.611807 29.423144 9.999756 -32.299194 2.081331 1.634087 84.036430 6.005123 8.830478 -13.721015 0.000000 0.000000 0.000000 -37.758060 -3.988131 -44.167958 23.327326 -11.975360 77.008809 -9.441485 -25.351519 -14.691645 0.000000 0.000000 0.000000 16.666714 -4.282300 37.621608 -2.216809 0.789915 -25.412509 2.485500 9.629976 16.978726 3.140294 -0.986750 -13.168988 0.000000 0.000000 0.000000 -8.429688 -24.242036 9.315206 -22.605812 -39.703220 2.895017 124.623685 -20.105327 -34.808369 0.000000 0.000000 0.000000 1.350478 28.580534 9.679140 43.588964 75.279891 26.782715 -76.334802 28.345437 -18.969831 0.000000 0.000000 0.000000 
-0.011149 0.639848 0.009642 1.278392 -15.310083 -6.649828 28.581733 8.987123 -31.514635 0.133078 3.250905 80.537716 5.868827 8.889583 -12.703179 0.000000 0.000000 0.000000 -37.037281 -3.952352 -42.244093 22.363565 -10.837063 73.852580 -8.669137 -22.035841 -10.028209 0.000000 0.000000 0.000000 16.995683 -4.513629 36.467195 -1.349066 0.578283 -24.001204 2.443883 9.886945 16.477050 2.690244 -0.424241 -14.456005 0.000000 0.000000 0.000000 -4.212484 -24.651710 8.724749 -22.252285 -41.414814 3.069449 123.237604 -17.169005 -29.545483 0.000000 0.000000 0.000000 -0.695851 28.730036 9.348388 41.878744 77.758811 27.264981 -70.077598 23.482030 -13.593536 0.000000 0.000000 0.000000 
-0.011447 0.677197 0.012006 1.224728 -15.135699 -5.395041 28.410267 8.360449 -29.877971 -2.940864 6.136408 75.464232 6.323534 11.321097 -8.076704 0.000000 0.000000 0.000000 -35.312525 -3.268787 -40.214664 20.805860 -8.682662 69.416563 -7.464070 -18.442634 -5.770367 0.000000 0.000000 0.000000 16.786263 -4.449861 35.587953 -0.862283 0.450998 -23.528506 3.276676 9.683545 16.642862 1.001445 0.838948 -15.988535 0.000000 0.000000 0.000000 -0.500634 -23.072971 7.675664 -19.937264 -42.310960 2.583183 118.299071 -14.294826 -22.531093 0.000000 0.000000 0.000000 -4.791198 28.857763 8.417416 48.229386 79.911261 33.977207 -64.296056 22.375945 -11.549108 0.000000 0.000000 0.000000 
-0.011807 0.719856 0.017453 0.830411 -14.004920 -4.146436 27.717557 7.380026 -28.437021 -5.680037 7.644044 69.656480 6.103683 11.187165 -6.692801 0.000000 0.000000 0.000000 -33.418120 -2.785378 -37.259143 18.998219 -6.842009 63.855297 -6.889452 -17.394695 -0.224124 0.000000 0.000000 0.000000 15.455535 -4.082854 33.080572 1.398394 -0.161287 -22.407338 2.962335 9.901239 16.460483 -0.108929 1.618332 -15.552186 0.000000 0.000000 0.000000 1.401418 -22.142538 7.133938 -16.242628 -38.155918 1.134473 116.346279 -12.901754 -20.197789 0.000000 0.000000 0.000000 -3.732964 29.098875 8.858519 45.736929 78.289941 30.969877 -62.397081 29.227657 -14.985953 0.000000 0.000000 0.000000 
-0.012328 0.764260 0.025685 0.430263 -12.750702 -3.037448 26.823622 6.368686 -26.966516 -7.507666 7.714806 62.393294 5.664376 11.092457 -2.463200 0.000000 0.000000 0.000000 -31.264437 -2.120609 -32.586894 16.248134 -4.542030 55.159089 -6.317310 -16.441384 2.901955 0.000000 0.000000 0.000000 13.387962 -3.583576 31.049229 2.593720 -0.506553 -21.268596 3.661049 9.458679 15.985477 -0.622714 1.927796 -15.686764 0.000000 0.000000 0.000000 3.462548 -19.561580 6.145663 -13.137469 -34.731287 0.240088 111.670471 -12.231070 -17.838991 0.000000 0.000000 0.000000 -3.077675 28.410390 8.917037 53.614312 76.451488 36.052284 -63.030331 38.721450 -20.740006 0.000000 0.000000 0.000000 
-0.012324 0.805258 0.034806 -0.660646 -13.186067 -2.498626 26.430969 5.914866 -25.331648 -8.272211 7.514256 56.655394 4.836156 9.551938 -1.655875 0.000000 0.000000 0.000000 -27.734076 -1.014565 -27.561227 13.175029 -2.317660 47.103746 -5.653492 -14.995350 3.243971 0.000000 0.000000 0.000000 9.994457 -2.680382 29.976935 3.724222 -0.767245 -22.007726 4.788027 10.466167 16.969938 -0.301198 1.648532 -13.396528 0.000000 0.000000 0.000000 5.212841 -18.862648 5.783221 -8.943416 -28.376237 -0.700570 106.877402 -10.668854 -15.168442 0.000000 0.000000 0.000000 0.711421 27.847205 9.707415 56.658552 72.545512 35.436884 -68.423549 51.706668 -31.636869 0.000000 0.000000 0.000000 
-0.010318 0.839383 0.043191 -2.179638 -12.031733 -0.888924 25.508396 5.370360 -25.606541 -7.694539 5.751163 49.784142 4.899484 9.234815 -4.403166 0.000000 0.000000 0.000000 -25.246658 -0.420370 -22.145756 11.074450 -1.544284 37.371638 -5.659984 -15.541195 6.216786 0.000000 0.000000 0.000000 6.209310 -1.831141 27.726016 5.617886 -1.302348 -20.917469 4.909223 10.927737 16.515406 -0.031230 1.440153 -12.114670 0.000000 0.000000 0.000000 7.370634 -17.126875 5.205860 -3.586684 -24.867987 -1.281641 99.024618 -7.264895 -10.297927 0.000000 0.000000 0.000000 5.218638 28.532118 11.357623 56.077989 71.249648 34.071082 -72.038843 60.364563 -39.993153 0.000000 0.000000 0.000000 
-0.003981 0.862162 0.051359 -4.678728 -11.420087 1.421900 26.348420 5.709486 -27.013740 -7.536688 4.743670 44.212307 3.804011 7.116219 -3.221894 0.000000 0.000000 0.000000 -22.381017 0.059217 -18.928530 9.492188 -1.098079 29.712603 -4.572284 -14.146309 9.705775 0.000000 0.000000 0.000000 4.123509 -1.397875 25.743013 5.790771 -1.291923 -21.119485 5.691633 13.074908 17.571888 0.855895 0.946743 -10.864000 0.000000 0.000000 0.000000 10.374765 -16.591418 5.046091 1.625266 -24.609864 -1.926981 92.715943 -1.047097 -4.483251 0.000000 0.000000 0.000000 8.195208 28.175393 12.482613 53.428401 70.378795 31.689294 -83.292514 66.519866 -52.855072 0.000000 0.000000 0.000000 
0.008532 0.873814 0.061166 -6.312132 -10.338249 2.807369 26.451360 5.847869 -28.859556 -7.491304 4.174559 41.533120 3.509542 7.026705 -1.025022 0.000000 0.000000 0.000000 -21.469528 0.274694 -15.484160 8.747973 -1.018560 23.508164 -4.047021 -14.145826 14.626987 0.000000 0.000000 0.000000 1.101057 -0.772824 24.403401 6.173279 -1.394310 -20.627414 6.137701 14.327414 18.172540 1.463326 0.450185 -8.907849 0.000000 0.000000 0.000000 11.447686 -16.656471 5.162461 7.576182 -26.271867 -3.007833 90.741365 5.316667 0.823347 0.000000 0.000000 0.000000 9.317056 29.876154 13.993736 43.488345 72.235396 25.802841 -95.847003 64.501895 -60.927027 0.000000 0.000000 0.000000 
0.025719 0.876992 0.073523 -6.691897 -8.711762 3.778289 25.545549 5.449750 -30.206175 -8.386496 4.163901 39.541140 3.801194 7.719996 -0.792373 0.000000 0.000000 0.000000 -21.385990 0.324398 -13.251945 7.995542 -0.936124 21.181186 -3.876622 -13.819280 15.383874 0.000000 0.000000 0.000000 -0.164458 -0.569525 23.693777 3.772485 -0.763639 -20.034517 6.325281 15.460143 17.046358 1.859754 0.140126 -7.727544 0.000000 0.000000 0.000000 12.559238 -18.031470 5.631164 10.679654 -29.347008 -4.282090 92.976503 12.764585 7.611400 0.000000 0.000000 0.000000 8.851074 30.660280 14.647216 36.715675 74.478594 22.513090 -102.595410 59.633676 -61.138826 0.000000 0.000000 0.000000 
0.043041 0.879622 0.088171 -7.020384 -7.731394 4.303889 24.557071 4.923387 -30.247720 -8.858460 4.150416 38.468503 4.600900 9.105236 -2.385801 0.000000 0.000000 0.000000 -20.982657 0.409255 -11.350144 7.272907 -0.810510 18.889417 -4.532251 -14.979762 16.505359 0.000000 0.000000 0.000000 -2.081526 -0.176602 23.286305 2.561227 -0.281784 -22.355836 6.002349 16.548434 19.233041 2.004696 0.153230 -7.242495 0.000000 0.000000 0.000000 12.105370 -19.288027 5.994383 14.350107 -32.330404 -5.974608 100.990220 16.123774 12.126778 0.000000 0.000000 0.000000 7.530107 31.970496 15.050707 23.967670 76.472353 14.042088 -107.887322 51.255124 -55.385209 0.000000 0.000000 0.000000 
0.056978 0.887075 0.103615 -7.053962 -6.013092 4.426211 23.957088 4.248434 -29.388219 -10.577910 4.444763 35.874249 5.626030 11.376444 -2.134138 0.000000 0.000000 0.000000 -20.311624 0.471312 -8.713109 7.436593 -0.935433 16.980909 -5.098712 -15.717589 16.768400 0.000000 0.000000 0.000000 -4.147494 0.209915 22.777355 0.324489 0.324860 -22.581995 6.391698 16.315598 19.182335 2.080343 0.335034 -8.379429 0.000000 0.000000 0.000000 11.562201 -21.095281 6.455566 16.236325 -34.917314 -7.286065 107.665237 17.225068 15.409905 0.000000 0.000000 0.000000 2.843407 32.269607 13.440388 10.669506 76.941534 4.825358 -111.360368 45.300473 -51.193643 0.000000 0.000000 0.000000 
0.066293 0.901294 0.117737 -7.857593 -4.967493 4.870995 23.909577 3.676564 -27.166648 -11.816183 4.336136 31.134074 6.830481 14.175590 -0.101305 0.000000 0.000000 0.000000 -18.207559 0.511999 -7.412846 6.877447 -0.849089 17.152818 -5.013687 -15.721851 18.942641 0.000000 0.000000 0.000000 -5.244990 0.374847 21.174104 -1.579392 0.813685 -21.684722 5.821730 16.192066 19.889337 2.256425 0.301087 -8.572334 0.000000 0.000000 0.000000 12.703855 -22.962705 6.817969 17.404059 -34.916516 -7.723494 111.996543 18.092626 17.758766 0.000000 0.000000 0.000000 -0.910900 31.009971 11.508294 1.876201 76.308635 -1.204280 -116.425454 39.411294 -47.541509 0.000000 0.000000 0.000000 
0.071408 0.916278 0.128867 -9.361967 -4.968812 5.496701 24.103955 3.213686 -23.925819 -10.569964 3.443932 27.133920 6.661905 13.799375 -0.829130 0.000000 0.000000 0.000000 -15.713219 0.491655 -9.414774 8.128453 -1.186605 19.656033 -4.509965 -14.945199 18.901906 0.000000 0.000000 0.000000 -6.885717 0.717363 20.657653 -1.094440 0.738993 -23.837545 6.355005 15.513648 22.472251 2.089747 0.623452 -10.068132 0.000000 0.000000 0.000000 13.430708 -21.842899 6.487831 17.692972 -35.811176 -8.095329 113.349231 17.186451 17.182486 0.000000 0.000000 0.000000 -4.562761 30.227222 9.728793 -2.821402 76.411440 -4.428288 -118.649130 35.386369 -43.847570 0.000000 0.000000 0.000000 
0.074767 0.929960 0.136652 -11.095852 -5.567918 6.237366 24.774563 3.093357 -21.596411 -9.318375 2.690624 22.860602 7.020034 14.769126 1.914359 0.000000 0.000000 0.000000 -12.549285 0.632195 -14.242350 8.446703 -1.286905 24.856038 -4.498481 -15.054035 18.932629 0.000000 0.000000 0.000000 -7.445147 0.817916 19.540079 -0.718543 0.615652 -23.275672 6.046419 13.449147 22.861254 0.780032 1.342511 -10.155829 0.000000 0.000000 0.000000 20.405978 -20.951246 5.582650 12.859732 -34.027968 -6.116878 113.745321 21.488374 23.788337 0.000000 0.000000 0.000000 -6.340945 29.864846 8.918864 2.489739 76.261323 -0.946655 -120.031487 35.462798 -45.448828 0.000000 0.000000 0.000000 
0.077103 0.936693 0.144014 -12.037906 -5.720104 7.186203 25.769795 3.206982 -20.995728 -8.500890 2.277805 20.674354 6.008121 13.027090 4.155412 0.000000 0.000000 0.000000 -10.312513 0.944081 -18.840111 8.213154 -1.185033 24.223109 -2.404618 -12.006134 19.814655 0.000000 0.000000 0.000000 -7.306745 0.828766 19.906978 -0.346532 0.572997 -25.067686 4.677962 9.971325 24.189711 0.420226 1.059261 -8.729379 0.000000 0.000000 0.000000 25.275682 -17.910667 4.091378 10.582940 -32.872774 -4.881196 112.765685 21.644545 25.459795 0.000000 0.000000 0.000000 -4.589465 28.402616 8.938477 8.184045 80.133209 2.296509 -120.696254 37.132955 -48.967296 0.000000 0.000000 0.000000 
0.079092 0.935502 0.153289 -12.356595 -5.515179 7.914941 25.396960 3.117023 -21.249204 -6.730465 1.728522 20.938841 5.211978 11.412849 3.218006 0.000000 0.000000 0.000000 -7.909591 1.241499 -19.496067 6.941805 -0.804542 18.957872 -1.127564 -9.661370 18.303705 0.000000 0.000000 0.000000 -6.830934 0.689713 18.631223 -0.820128 0.645268 -23.591630 4.690102 8.551535 23.324455 -0.206733 1.206167 -6.815382 0.000000 0.000000 0.000000 26.941543 -19.134833 3.771964 10.897042 -29.679811 -4.035036 112.636772 23.074809 28.090256 0.000000 0.000000 0.000000 -0.948268 27.054600 9.548047 22.519516 80.018825 13.173151 -123.289429 40.420978 -56.045899 0.000000 0.000000 0.000000 
0.082997 0.929495 0.166542 -11.419544 -4.601637 6.872126 23.805992 2.840499 -22.365136 -5.900368 1.523707 23.883870 5.106023 11.281190 3.528920 0.000000 0.000000 0.000000 -8.401008 1.023540 -17.367809 6.164607 -0.667244 15.762054 -1.529343 -10.541046 19.959013 0.000000 0.000000 0.000000 -6.390242 0.558752 19.077397 -0.715436 0.694396 -25.776305 4.530960 7.325180 25.854217 0.272843 0.824401 -7.245414 0.000000 0.000000 0.000000 26.434497 -18.731744 3.424850 11.805825 -27.480374 -3.597865 113.368530 21.906507 26.805615 0.000000 0.000000 0.000000 1.382533 26.524520 9.868940 31.608047 78.743243 19.454624 -122.055612 43.390355 -58.812771 0.000000 0.000000 0.000000 
0.090685 0.924852 0.182315 -9.899561 -1.584405 5.226333 21.338356 2.124895 -23.991371 -4.837162 0.964659 26.994598 3.950558 9.514253 4.989264 0.000000 0.000000 0.000000 -10.090107 0.613627 -14.489516 4.577028 -0.439032 14.632498 -1.614661 -10.699975 22.906435 0.000000 0.000000 0.000000 -5.940837 0.336368 19.032750 -2.148964 1.061433 -25.078960 4.838179 6.714846 24.916657 0.946888 0.153095 -5.322135 0.000000 0.000000 0.000000 25.884877 -18.089963 3.714269 14.860413 -28.669393 -4.452219 112.315755 21.009554 24.050327 0.000000 0.000000 0.000000 2.751092 24.405537 9.509448 44.462387 77.759103 29.630840 -123.105593 45.181202 -61.794725 0.000000 0.000000 0.000000 
0.103525 0.925679 0.198222 -8.540652 0.721820 3.687942 19.305464 1.445649 -23.882469 -5.127479 0.843095 28.664896 2.931323 8.035521 6.063001 0.000000 0.000000 0.000000 -12.204866 0.290385 -10.772799 3.907478 -0.377124 12.942587 -2.413314 -11.838969 25.396422 0.000000 0.000000 0.000000 -5.470875 0.143831 18.614994 -2.042433 1.089860 -25.910372 5.077196 7.499897 25.375393 1.423025 -0.318365 -3.397672 0.000000 0.000000 0.000000 25.937387 -17.057415 4.058120 16.768184 -29.913248 -5.416344 109.827261 20.667898 20.749151 0.000000 0.000000 0.000000 2.601171 23.520231 9.263234 44.639220 77.780872 30.446359 -119.657138 43.158457 -54.884996 0.000000 0.000000 0.000000 
0.120354 0.930822 0.212782 -7.360111 3.366496 3.455576 17.421342 0.835530 -24.656263 -5.489008 0.696040 29.081061 1.087517 5.889622 9.178172 0.000000 0.000000 0.000000 -14.255521 0.096998 -7.337609 3.081917 -0.275913 10.836299 -2.039108 -11.148284 27.745793 0.000000 0.000000 0.000000 -5.140469 0.017783 17.050353 -1.739684 1.075341 -25.087712 5.017797 8.214880 23.782182 2.104467 -1.223473 -0.963868 0.000000 0.000000 0.000000 25.396271 -14.467099 4.510329 19.489062 -32.468582 -7.182839 106.772112 21.481864 19.296051 0.000000 0.000000 0.000000 -0.329491 23.568142 8.580471 38.925785 79.286693 27.922328 -113.779591 37.970372 -43.052554 0.000000 0.000000 0.000000 
0.138175 0.934627 0.225490 -6.396575 5.876610 3.727468 15.711007 0.276433 -25.286915 -5.947541 0.596275 29.397770 -0.536830 3.698167 10.278254 0.000000 0.000000 0.000000 -16.386219 -0.069481 -5.444394 3.243060 -0.369619 10.465781 -2.887215 -12.048419 29.371616 0.000000 0.000000 0.000000 -4.442764 -0.128048 15.891228 -2.340799 1.255868 -25.084847 4.879316 9.966084 22.154562 4.165703 -3.434987 0.909897 0.000000 0.000000 0.000000 25.262972 -14.060798 5.318784 21.697668 -33.635807 -8.773771 104.927001 23.046065 18.837000 0.000000 0.000000 0.000000 -3.861630 24.957702 8.120848 15.863261 80.323070 11.040168 -106.032285 28.191997 -26.230535 0.000000 0.000000 0.000000 
0.154045 0.937997 0.236944 -5.624726 7.434911 3.789204 14.504728 -0.093006 -24.405305 -6.379959 0.597439 28.110447 -2.162452 1.407353 11.102717 0.000000 0.000000 0.000000 -17.579583 -0.134822 -3.667488 2.670685 -0.277987 9.386058 -3.244778 -12.544158 32.150030 0.000000 0.000000 0.000000 -3.793632 -0.231200 15.056922 -3.442305 1.505369 -26.115164 4.951633 11.691644 22.142510 5.694130 -4.537579 0.084131 0.000000 0.000000 0.000000 24.047778 -13.012794 5.830006 25.353644 -36.430365 -11.616138 105.436636 22.674682 17.682732 0.000000 0.000000 0.000000 -7.210687 25.846563 7.291887 -10.561881 81.948586 -9.269679 -101.091911 18.810198 -14.113097 0.000000 0.000000 0.000000 
0.166944 0.942421 0.247654 -5.367739 8.741619 4.748874 13.171962 -0.427849 -23.591110 -5.831669 0.346024 25.640107 -2.600499 0.783838 11.059389 0.000000 0.000000 0.000000 -18.068524 -0.193985 -3.422612 3.170698 -0.415118 9.832586 -3.959699 -13.244350 32.509213 0.000000 0.000000 0.000000 -3.507251 -0.216810 13.099103 -4.170819 1.662359 -26.247044 4.753291 12.646603 21.512102 6.981766 -5.468711 -0.568638 0.000000 0.000000 0.000000 22.820802 -12.049227 6.109335 27.839207 -38.271849 -13.776653 107.445641 23.367317 19.022855 0.000000 0.000000 0.000000 -10.359121 26.935542 6.539860 -27.951453 81.043428 -22.376330 -99.983933 13.550667 -8.565929 0.000000 0.000000 0.000000 
0.176991 0.946224 0.258161 -5.239286 8.024947 4.829474 12.250815 -0.475679 -21.364522 -5.943995 0.489288 22.787232 -1.560676 2.904782 11.926733 0.000000 0.000000 0.000000 -18.214852 -0.138575 -3.193418 3.516079 -0.479427 10.349594 -3.826578 -13.269728 33.002403 0.000000 0.000000 0.000000 -2.938001 -0.240290 12.024260 -5.384904 1.882534 -26.649799 4.302114 15.005195 21.914492 8.092365 -5.782640 -2.271222 0.000000 0.000000 0.000000 22.119706 -11.820589 6.407410 30.677029 -39.490529 -15.998647 110.139625 23.623369 20.054761 0.000000 0.000000 0.000000 -12.859491 26.057909 5.294272 -45.594964 81.274621 -36.224155 -99.973574 10.605460 -5.889361 0.000000 0.000000 0.000000 
0.184248 0.949289 0.268618 -5.210240 8.133113 4.777436 11.371727 -0.554032 -19.206381 -4.814466 0.202094 20.739360 -2.164638 1.498307 10.970661 0.000000 0.000000 0.000000 -17.231096 -0.077102 -2.605119 3.389036 -0.474668 11.780909 -3.400539 -12.536967 31.228794 0.000000 0.000000 0.000000 -3.240830 -0.165224 10.771919 -6.338110 2.102142 -26.117072 3.686981 14.954231 22.042040 8.277137 -5.758465 -2.818312 0.000000 0.000000 0.000000 21.312280 -11.798175 6.365961 32.000172 -39.522136 -16.595039 114.011067 24.865558 23.785248 0.000000 0.000000 0.000000 -14.190622 25.352744 4.597507 -48.799138 79.943019 -37.668986 -102.122686 12.949875 -9.060507 0.000000 0.000000 0.000000 
0.189794 0.952125 0.277953 -6.646644 7.694677 4.644355 12.254088 -0.407896 -17.221140 -4.502073 0.200300 18.639432 -1.305723 2.633675 10.290600 0.000000 0.000000 0.000000 -15.337304 0.000497 -3.051164 2.998256 -0.383809 12.787029 -2.517414 -11.217027 29.374747 0.000000 0.000000 0.000000 -3.387151 -0.126571 9.859521 -5.038682 1.776252 -27.229548 3.520821 15.944177 23.953004 8.786941 -4.349924 -7.975567 0.000000 0.000000 0.000000 20.940833 -13.306125 6.627127 32.306362 -38.630647 -16.557013 118.485550 24.294652 24.830552 0.000000 0.000000 0.000000 -15.947554 23.138923 3.209408 -30.322168 80.510790 -21.669947 -105.826370 18.707200 -15.929823 0.000000 0.000000 0.000000 
0.194069 0.951360 0.285874 -7.373860 5.164061 4.362950 13.706756 -0.126210 -15.841361 -5.886394 0.696413 18.041766 -0.760747 3.849571 11.697232 0.000000 0.000000 0.000000 -14.916811 0.084152 -4.724798 3.178133 -0.346560 12.471241 -2.344931 -11.540441 29.974922 0.000000 0.000000 0.000000 -4.688696 0.029571 9.184651 -4.959307 1.729380 -27.403763 4.665903 15.326025 24.412921 7.378884 -2.637844 -10.670049 0.000000 0.000000 0.000000 21.506317 -11.531302 6.098746 32.043416 -40.883698 -17.209872 122.811284 23.088631 26.793493 0.000000 0.000000 0.000000 -18.802263 23.860117 2.578437 -16.829357 79.286344 -10.735512 -108.243982 22.081573 -20.950985 0.000000 0.000000 0.000000 
0.198329 0.948143 0.293211 -7.723753 2.088206 4.870380 14.330505 0.105042 -15.362071 -6.996992 1.166918 18.063201 0.780847 6.221095 12.289094 0.000000 0.000000 0.000000 -13.822882 0.244412 -6.519041 2.990151 -0.235619 9.121929 -3.242955 -12.959958 27.007897 0.000000 0.000000 0.000000 -4.531704 0.055348 7.937063 -4.634525 1.622024 -27.647204 4.007052 16.119998 23.817360 7.976348 -3.079760 -11.193780 0.000000 0.000000 0.000000 22.301532 -13.609689 6.121654 30.853818 -39.199273 -15.402677 126.974502 23.543951 30.699140 0.000000 0.000000 0.000000 -17.372007 23.849289 3.207997 -14.334436 79.583559 -9.595142 -106.855694 27.733053 -27.708110 0.000000 0.000000 0.000000 
0.203893 0.943900 0.300337 -6.928843 -1.090185 4.513274 13.822096 0.223096 -14.339335 -7.483957 1.483453 17.847667 0.237328 5.971961 15.785355 0.000000 0.000000 0.000000 -12.840095 0.384292 -7.456702 2.227134 -0.092498 6.452451 -3.614499 -13.920935 25.637714 0.000000 0.000000 0.000000 -4.434768 0.065369 7.790845 -5.886266 1.860362 -27.308434 4.044576 16.123845 23.038556 7.050052 -2.050747 -13.573345 0.000000 0.000000 0.000000 21.005181 -15.354090 5.861931 30.961082 -39.638546 -14.960670 127.861315 21.333621 29.210047 0.000000 0.000000 0.000000 -15.419665 24.412190 4.146131 -6.211747 80.770639 -4.402038 -106.080571 35.627833 -37.271259 0.000000 0.000000 0.000000 
0.210746 0.942518 0.307592 -6.011852 -4.038955 4.408895 12.314231 0.161112 -12.341660 -7.604663 1.637104 16.559427 1.037970 6.732003 15.547735 0.000000 0.000000 0.000000 -13.226745 0.487963 -7.998396 1.711168 -0.000090 5.815256 -3.405920 -14.031856 24.537414 0.000000 0.000000 0.000000 -3.852834 0.030916 7.812053 -6.546580 1.949521 -28.020962 3.034525 15.509191 22.310493 8.167791 -2.878716 -15.072871 0.000000 0.000000 0.000000 19.288633 -18.417668 5.761487 29.414218 -40.479293 -13.943038 131.197670 18.328028 27.968621 0.000000 0.000000 0.000000 -11.667018 24.654980 5.512109 -2.839351 84.439861 -3.449649 -102.022249 42.740894 -43.441491 0.000000 0.000000 0.000000 
0.217368 0.944030 0.314773 -5.413750 -8.286091 4.261473 11.104524 0.172884 -9.965859 -7.314614 1.663106 14.232557 0.962255 6.719335 18.877987 0.000000 0.000000 0.000000 -13.283953 0.654652 -9.050501 1.044689 0.113961 5.470643 -2.170745 -13.275079 25.601585 0.000000 0.000000 0.000000 -2.842154 -0.035602 7.083401 -6.517248 1.910869 -27.665923 2.615382 15.793357 21.842239 6.954949 -2.115369 -16.126300 0.000000 0.000000 0.000000 17.396334 -20.076483 5.687846 25.157743 -42.545150 -12.601941 130.685698 14.356593 21.974183 0.000000 0.000000 0.000000 -9.965632 25.915044 6.454612 43.449849 88.229482 39.721033 -98.508566 47.529486 -46.635172 0.000000 0.000000 0.000000 
0.222057 0.949164 0.321729 -5.514696 -12.256205 4.379697 10.173534 0.183024 -7.358069 -5.854676 1.314793 11.758056 -0.336285 4.568549 20.618295 0.000000 0.000000 0.000000 -12.902716 0.824348 -9.868751 0.456839 0.221972 5.621778 -1.541411 -13.578836 27.747267 0.000000 0.000000 0.000000 -1.653146 -0.102168 5.621404 -5.883173 1.727826 -27.069211 2.139793 15.526336 21.703212 8.321016 -3.201871 -17.524655 0.000000 0.000000 0.000000 17.698928 -21.220646 5.413324 18.814174 -42.254364 -9.664644 129.029700 13.142628 20.461058 0.000000 0.000000 0.000000 -8.191372 26.227380 7.093796 143.436759 86.520983 136.824915 -97.068760 49.796763 -48.226912 0.000000 0.000000 0.000000 
0.224425 0.955252 0.328387 -6.628651 -16.050939 4.733162 10.374021 0.306086 -5.230396 -5.643810 1.306116 10.115644 1.279276 6.472743 22.170400 0.000000 0.000000 0.000000 -11.955081 0.988977 -10.993520 0.442523 0.284371 6.310618 0.268481 -12.094309 28.328750 0.000000 0.000000 0.000000 -0.955335 -0.138184 5.058618 -4.100039 1.274267 -27.033759 1.850566 15.224675 21.746315 9.285087 -4.306753 -17.260886 0.000000 0.000000 0.000000 18.050647 -22.420022 5.159783 16.031133 -42.228217 -8.208155 126.732791 9.947951 15.491785 0.000000 0.000000 0.000000 -6.748955 25.569525 7.295388 158.250026 83.485757 149.233093 -96.336337 48.629376 -46.486008 0.000000 0.000000 0.000000 
0.225983 0.961118 0.334822 -7.576811 -19.280643 4.502419 10.044648 0.378997 -2.287919 -4.661839 1.082336 8.727188 2.006525 6.841774 21.342465 0.000000 0.000000 0.000000 -10.569212 1.090005 -11.357016 -0.126912 0.395479 6.637736 1.077233 -12.291040 30.792029 0.000000 0.000000 0.000000 -0.469760 -0.175984 5.190120 -2.482796 0.849143 -26.565899 1.998676 15.111621 21.246238 8.987787 -4.723501 -15.373626 0.000000 0.000000 0.000000 19.291848 -23.305225 4.817160 12.879579 -41.143184 -6.572191 126.064854 8.414528 13.993129 0.000000 0.000000 0.000000 -6.392484 25.798148 7.455509 158.552019 82.665385 147.812531 -98.211840 45.709124 -44.810850 0.000000 0.000000 0.000000 
0.228891 0.965922 0.341426 -9.261867 -20.274215 5.143301 11.017342 0.485005 -1.072509 -4.810236 1.089121 7.748748 3.416641 8.693248 21.455399 0.000000 0.000000 0.000000 -10.413408 1.115187 -11.056646 0.716380 0.224453 5.453229 2.294270 -11.844205 34.607959 0.000000 0.000000 0.000000 0.046788 -0.192665 4.472003 -1.167575 0.528889 -26.380499 2.310069 14.671226 21.784148 10.211968 -5.518100 -16.708129 0.000000 0.000000 0.000000 21.768796 -23.503564 4.210788 12.485066 -41.170401 -6.233249 126.185475 6.063699 10.668900 0.000000 0.000000 0.000000 -4.262582 24.852925 7.625930 158.458734 83.820931 147.567235 -100.072568 42.151866 -42.176914 0.000000 0.000000 0.000000 
0.234700 0.971495 0.348155 -9.628284 -20.638515 5.160357 11.543970 0.543258 -0.621141 -5.610054 1.278491 7.514518 2.362448 7.456813 23.901303 0.000000 0.000000 0.000000 -9.201632 1.093445 -10.698596 -0.360068 0.403053 6.245337 2.731956 -11.574984 35.140427 0.000000 0.000000 0.000000 -0.746169 -0.139610 4.406425 1.777930 -0.048595 -26.611796 2.518717 13.637499 23.360073 9.216662 -4.973973 -17.264366 0.000000 0.000000 0.000000 22.055214 -23.377640 3.808763 10.143245 -41.160993 -5.362744 125.089042 2.060066 4.609301 0.000000 0.000000 0.000000 -4.671331 23.800701 7.202637 148.077739 84.324114 135.559536 -101.351950 40.490296 -41.068927 0.000000 0.000000 0.000000 
0.243985 0.975033 0.354704 -9.339120 -20.957895 5.249609 10.251090 0.448005 0.072677 -5.541909 1.164235 5.905770 3.088008 8.575187 25.955966 0.000000 0.000000 0.000000 -11.028602 1.150127 -11.080531 0.536720 0.330493 6.728537 3.905247 -11.086839 39.332078 0.000000 0.000000 0.000000 -0.169361 -0.134842 3.202001 1.113204 0.033947 -26.062697 3.259528 12.741681 23.784968 8.283694 -4.680988 -16.067536 0.000000 0.000000 0.000000 22.478074 -23.076112 3.505861 12.040708 -42.294746 -5.872823 122.741681 -0.066422 1.310486 0.000000 0.000000 0.000000 -5.871050 22.927971 6.747297 155.019793 85.320353 143.147955 -106.433666 36.962269 -40.524917 0.000000 0.000000 0.000000 
0.256890 0.979457 0.360439 -9.388584 -21.285066 4.948440 8.861524 0.388636 0.440545 -5.180649 1.160610 6.981825 3.523981 8.914814 23.917202 0.000000 0.000000 0.000000 -12.265047 1.167734 -10.686285 2.435908 0.113641 6.781943 5.244449 -8.962470 36.542318 0.000000 0.000000 0.000000 1.596975 -0.229627 3.335739 -0.225432 0.258066 -25.508549 3.211605 10.840338 24.033861 6.230842 -3.523550 -16.463475 0.000000 0.000000 0.000000 21.423379 -22.656935 3.354435 10.468118 -42.812829 -5.171057 118.524979 -4.618293 -4.827062 0.000000 0.000000 0.000000 -6.460701 22.732875 6.609195 162.821255 86.157747 150.753686 -105.438290 33.574467 -36.222910 0.000000 0.000000 0.000000 
